<?xml version="1.0" encoding="UTF-8"?>
<kml>
  <Document>
    <Placemark>
      <name>R5162699230</name>
      <ExtendedData>
        
          <Data name="Aircraft Name">
            <value>PLOA-28</value>
          </Data>
          <Data name="Flight Controller ID">
            <value>1581F836W25540019KEP</value>
          </Data>
          <Data name="Pilot Name">
            <value>Luiz Camilo</value>
          </Data>
          <Data name="Flight Time">
            <value> 417000</value>
          </Data>
          <Data name="Mode Selection">
            <value>Auto</value>
          </Data>
          <Data name="Height">
            <value>4.5</value>
          </Data>
          <Data name="Route Spacing">
            <value>5.085999965667725</value>
          </Data>
          <Data name="Task Flight Speed">
            <value>6.099999904632568</value>
          </Data>
          <Data name="Task Area">
            <value>0.8533333376000001</value>
          </Data>
          <Data name="Spray amount">
            <value>11893</value>
          </Data>
        
      </ExtendedData>
      <Style>
        <LineStyle>
          <color>#FF0000FF</color>
          <width>1</width>
          </LineStyle>
      </Style>
      <LineString>
        <coordinates>-45.293836718781,-22.163991285323444,0 -45.293836718781,-22.163991285323444,0 -45.293836718781,-22.163991285323444,0 -45.29383679123632,-22.16399117398512,0 -45.29383676806845,-22.163991293433583,0 -45.293836726423436,-22.163991190865364,0 -45.29383903712139,-22.163990618075147,0 -45.29383953378223,-22.16399006895069,0 -45.293840163053005,-22.16398970412117,0 -45.29384276594178,-22.163988955616748,0 -45.29384533630049,-22.163987722716602,0 -45.29421291454797,-22.1638773183606,0 -45.29422393381579,-22.16387326085099,0 -45.2942366930782,-22.163870999372893,0 -45.29423722040269,-22.163870839298053,0 -45.294238538787724,-22.163870477219884,0 -45.29423886084055,-22.163870377243,0 -45.29423965874355,-22.163869328353105,0 -45.29424010001416,-22.16386765741769,0 -45.29424075960464,-22.1638628540286,0 -45.294241025060856,-22.163854405735247,0 -45.29424041933503,-22.16382118480653,0 -45.29424050874024,-22.163816823629986,0 -45.29424028085031,-22.16380735993971,0 -45.294240389951135,-22.163797380041583,0 -45.294240234316376,-22.163786995882464,0 -45.29424028367903,-22.16377057949138,0 -45.294240155236075,-22.163765145497468,0 -45.29424075174473,-22.163708805450266,0 -45.294241922900184,-22.163586171624804,0 -45.294241684452196,-22.16355832290523,0 -45.29424177106278,-22.163547293785093,0 -45.2942415459535,-22.163541660202252,0 -45.29424095017536,-22.163475125741957,0 -45.29424104597286,-22.1634696289378,0 -45.294240993520326,-22.1634640659658,0 -45.294241149948114,-22.16345296960831,0 -45.29424108910714,-22.163436407758162,0 -45.294241208091776,-22.163287551463146,0 -45.294240927043205,-22.163271007759555,0 -45.29424095424516,-22.163265527452744,0 -45.29424070315746,-22.16321038530783,0 -45.29424173291854,-22.16307783183899,0 -45.294241280492294,-22.16296771561322,0 -45.29424236239812,-22.162588071111262,0 -45.29424202849219,-22.162571911724942,0 -45.29424180728505,-22.162517884886512,0 -45.29424192567674,-22.16251253230092,0 -45.29424278196639,-22.162441619461678,0 -45.29424272728498,-22.16243062755543,0 -45.29424137764049,-22.162353580554058,0 -45.29424144078531,-22.162348208128375,0 -45.294241519507565,-22.162161247471655,0 -45.29424093703651,-22.16207809909752,0 -45.29424144492901,-22.162022537288134,0 -45.29424051407548,-22.16179458087875,0 -45.294241028793564,-22.161758514946047,0 -45.294240901857904,-22.161750647901762,0 -45.29424057742901,-22.161746209491024,0 -45.29424003427244,-22.161742486983847,0 -45.29423967401972,-22.16174083791041,0 -45.29423874451299,-22.161738137996142,0 -45.2942376372889,-22.161736137860057,0 -45.29423636037183,-22.16173492471754,0 -45.29423490529308,-22.161734237062753,0 -45.2942332419515,-22.161734271512252,0 -45.29423229851333,-22.161734627398648,0 -45.294231399930474,-22.161735033712507,0 -45.29423032825038,-22.161735749619755,0 -45.294229352937066,-22.161736439209662,0 -45.29422705167881,-22.161738603876437,0 -45.29422243892458,-22.161744591239167,0 -45.29421509423454,-22.161756399073585,0 -45.29421358432339,-22.161758519912055,0 -45.294198053785536,-22.1617825745378,0 -45.294197002705616,-22.161784494632688,0 -45.29419596038981,-22.161786439802647,0 -45.29419522056088,-22.161788472046457,0 -45.29419446623555,-22.161790471502602,0 -45.29419305006944,-22.161794812521613,0 -45.294192786453024,-22.161797074859617,0 -45.29419238486821,-22.16179928732468,0 -45.294191848280256,-22.161804285551863,0 -45.29419148076561,-22.161812524770014,0 -45.294192734309,-22.16199353985954,0 -45.29419250791414,-22.162015605845024,0 -45.294192582701214,-22.16202126470356,0 -45.294192469857286,-22.162026766907655,0 -45.29419225695277,-22.16207684397796,0 -45.294192347749046,-22.162082452974442,0 -45.29419224018026,-22.16251477208032,0 -45.2941921199754,-22.162520306533974,0 -45.2941917503681,-22.162575296388578,0 -45.294190824642655,-22.162591623078782,0 -45.2941904169269,-22.16259703821188,0 -45.29418891080019,-22.162607536572523,0 -45.29418785861363,-22.162612783067146,0 -45.29418670314445,-22.162617949099086,0 -45.29418534510396,-22.16262308578533,0 -45.29418366538335,-22.162628234458335,0 -45.29418178268485,-22.162633138020393,0 -45.29417982099903,-22.162638130313557,0 -45.29417501882044,-22.16264772071411,0 -45.29417241869216,-22.162652448054875,0 -45.29416956803044,-22.162657167820363,0 -45.29416646457968,-22.16266176096749,0 -45.29415981378068,-22.162670865286785,0 -45.294156325155015,-22.16267537191228,0 -45.294137443370545,-22.162697019124767,0 -45.29375649842747,-22.163125943790206,0 -45.29374577354981,-22.163139091847857,0 -45.293742003516215,-22.16314334536637,0 -45.29370494819572,-22.163186434491468,0 -45.29365956495374,-22.16323638257376,0 -45.293570833056826,-22.163338933088262,0 -45.29303214610108,-22.16394799333787,0 -45.293027160526115,-22.163952403000373,0 -45.29302393828533,-22.1639546738522,0 -45.293020907601424,-22.163956085470907,0 -45.29301808548488,-22.163956772643413,0 -45.293013081889434,-22.16395599675361,0 -45.293011996402335,-22.163955257140945,0 -45.29301095743582,-22.163954453056473,0 -45.29300996846618,-22.16395346539011,0 -45.29300906558594,-22.163952243973206,0 -45.293008493156215,-22.16395069113456,0 -45.29300790741317,-22.163949079709496,0 -45.29300711140536,-22.16394750033424,0 -45.293006468270875,-22.16394577915916,0 -45.29300577027674,-22.163941072864645,0 -45.29300548643835,-22.16393847666448,0 -45.293005471511854,-22.16393635565749,0 -45.29300523508322,-22.1639335754794,0 -45.29300516380481,-22.163930687860237,0 -45.293005862980664,-22.163901624121387,0 -45.2930057539934,-22.16389742560253,0 -45.29300596412251,-22.163883946755043,0 -45.29300573523011,-22.163844347127558,0 -45.293005889793164,-22.163806678233687,0 -45.29300657778756,-22.163695978763588,0 -45.29300691875919,-22.163679408821842,0 -45.293007038804504,-22.163640347326133,0 -45.29300687109827,-22.1636349985657,0 -45.293006375797745,-22.16358468467478,0 -45.29300584612879,-22.16355738459482,0 -45.29300599409034,-22.1635019251462,0 -45.29300620682664,-22.16349642417584,0 -45.29300703811339,-22.163435402030196,0 -45.29300686220328,-22.16339097813095,0 -45.29300673147696,-22.16338547977675,0 -45.29300621180926,-22.163291179094408,0 -45.29300711305807,-22.163191265774074,0 -45.293006990869436,-22.163180172895878,0 -45.29300715432448,-22.163140989325292,0 -45.29300702936597,-22.163135730018027,0 -45.29300764075737,-22.162925283491308,0 -45.29300658945643,-22.162859033669697,0 -45.29300558035426,-22.16283695799583,0 -45.293005147140015,-22.162831496427067,0 -45.29300469869118,-22.16282596734689,0 -45.293004133240586,-22.162820505364984,0 -45.29300287883107,-22.16280921917821,0 -45.2929984540753,-22.16278237136147,0 -45.29299302755476,-22.16275529578111,0 -45.29299169175616,-22.162749867686458,0 -45.292989429292454,-22.162739071843035,0 -45.29298687617535,-22.162728332489902,0 -45.29297979044157,-22.162696925404035,0 -45.29297778971306,-22.16268723427924,0 -45.29295916124641,-22.162596497817518,0 -45.29295849821939,-22.162595358654105,0 -45.29295805025391,-22.16259560169315,0 -45.29295802761954,-22.162595954681642,0 -45.292957908691484,-22.16259630229547,0 -45.292957884132704,-22.16259664894364,0 -45.29295787399603,-22.162597104990127,0 -45.29295812097026,-22.16260253953512,0 -45.292958625686495,-22.162608940334163,0 -45.29295855362117,-22.16261364852252,0 -45.292957982903495,-22.162623426299355,0 -45.29295773863905,-22.16263280024751,0 -45.29295775179924,-22.162709537233926,0 -45.292957991208176,-22.162720384039343,0 -45.29295806199144,-22.162731118688548,0 -45.29295833763629,-22.16274224173873,0 -45.29295859620111,-22.16276421241591,0 -45.29295848091314,-22.16279737048602,0 -45.292957544182265,-22.162864327641966,0 -45.292957791354,-22.16303144408198,0 -45.292957157404054,-22.16307580504643,0 -45.29295720348586,-22.163086852181642,0 -45.29295695064084,-22.163131213215344,0 -45.2929570925708,-22.163142369333283,0 -45.29295702039275,-22.163153361630716,0 -45.2929576891625,-22.16323096658474,0 -45.29295761354254,-22.163236478715465,0 -45.29295738172353,-22.163385406705423,0 -45.29295755907917,-22.163396503646442,0 -45.292957964998884,-22.16348499789757,0 -45.292956534139606,-22.163562333671607,0 -45.292956361018845,-22.163617677459197,0 -45.292956887583415,-22.163656928820554,0 -45.292957117117396,-22.163662207589514,0 -45.2929572903105,-22.163712751036165,0 -45.29295719220756,-22.16371816439644,0 -45.29295719391464,-22.163729389782812,0 -45.292955968833134,-22.163818298813663,0 -45.29295607771108,-22.163840410821027,0 -45.29295694976481,-22.163911210796098,0 -45.29295662344558,-22.1639581973474,0 -45.292956023732785,-22.16396576361184,0 -45.29295569940616,-22.16396823525639,0 -45.29295449850561,-22.16397280212124,0 -45.29295284978954,-22.163977143781555,0 -45.292951779740946,-22.163979308380185,0 -45.29294916631571,-22.163982918792783,0 -45.29294776064686,-22.163984681135755,0 -45.29294452863502,-22.16398769570488,0 -45.29294076124186,-22.163990221230282,0 -45.292936839353494,-22.163991888100945,0 -45.29293245618961,-22.1639928918713,0 -45.292928103056845,-22.163993108469885,0 -45.29292387565809,-22.163992639296122,0 -45.29291979455182,-22.163991359976443,0 -45.292917988709554,-22.16399039252416,0 -45.292916172809,-22.163989375755605,0 -45.29291461170003,-22.16398804759734,0 -45.29291299785769,-22.163986579034514,0 -45.29291056819243,-22.163983221252586,0 -45.29290862895483,-22.163978925287218,0 -45.29290774294638,-22.163976709579014,0 -45.292906974532045,-22.16397436206524,0 -45.29290620243848,-22.163969243452907,0 -45.2929055736791,-22.16396396356447,0 -45.29290554041768,-22.163961023600177,0 -45.29290563113483,-22.163954964512328,0 -45.29290582411609,-22.16395177090442,0 -45.292906080654554,-22.16394483572295,0 -45.29290665018914,-22.16393738996386,0 -45.29290668601456,-22.16393338345382,0 -45.29290701810778,-22.163920954342277,0 -45.292907317485124,-22.163883049897564,0 -45.292907489699765,-22.163877946860648,0 -45.292908730552305,-22.16379801049284,0 -45.29290860695115,-22.16377591348596,0 -45.292907607181895,-22.163725645866375,0 -45.292907434316774,-22.163669814711646,0 -45.29290731409678,-22.163664376326597,0 -45.29290743923633,-22.163630673478263,0 -45.29290786121113,-22.163613681178134,0 -45.29290785185605,-22.16360824399982,0 -45.29290857914423,-22.163557359480276,0 -45.29290789255472,-22.163418281445654,0 -45.292908524262884,-22.163334532694705,0 -45.29290756760022,-22.163201371540573,0 -45.29290734405002,-22.16310733622578,0 -45.29290805056784,-22.163040398770292,0 -45.29290804953114,-22.16301818174276,0 -45.29290774878297,-22.16300112385532,0 -45.292907788284516,-22.162853085509873,0 -45.29290719276793,-22.162787063455667,0 -45.29290799449874,-22.162689449364642,0 -45.29290799033653,-22.162634502846096,0 -45.292908228366144,-22.162623749237355,0 -45.292907832695406,-22.16261717363928,0 -45.292907547094735,-22.16261511757641,0 -45.29290717532968,-22.1626133318334,0 -45.292906169914716,-22.162609948692175,0 -45.29290552028715,-22.162608471847737,0 -45.29290379769153,-22.1626057518243,0 -45.29290169390612,-22.162603886986368,0 -45.29289923711116,-22.162602465924866,0 -45.292896491429595,-22.162601763238857,0 -45.29289501042139,-22.162601704948496,0 -45.29289349421011,-22.16260166787743,0 -45.29289004451,-22.162602438317236,0 -45.29288662438551,-22.162603790042038,0 -45.29288272751647,-22.162605937980608,0 -45.29287877065744,-22.1626090717239,0 -45.292875152371806,-22.162612714697534,0 -45.2928732329888,-22.16261508102845,0 -45.292871468251775,-22.16261751707723,0 -45.292868141420115,-22.1626229358861,0 -45.29286669876423,-22.16262598519008,0 -45.29286523125972,-22.162629072247775,0 -45.29286383586151,-22.162632505269045,0 -45.29286286535274,-22.16263585672829,0 -45.29286190238756,-22.16263929774485,0 -45.29286099015577,-22.162642953008064,0 -45.29285963110779,-22.16265063595564,0 -45.29285873947355,-22.162658630840593,0 -45.29285819670076,-22.162666847005685,0 -45.292858050450334,-22.162671314901473,0 -45.29285814350884,-22.162689347572428,0 -45.29285829257747,-22.162694058659003,0 -45.292859040486064,-22.16272405157546,0 -45.29285903502054,-22.16281012328685,0 -45.29285892870496,-22.162815636381506,0 -45.29285900187906,-22.162832168773008,0 -45.292858895340395,-22.162837656239102,0 -45.292858204238996,-22.16290929078737,0 -45.292858550594985,-22.16296424959918,0 -45.29285933984538,-22.163031176992575,0 -45.29285918164163,-22.163064570736513,0 -45.29285879239517,-22.163086840877803,0 -45.29285836274702,-22.163197569237607,0 -45.29285801317754,-22.16321444422086,0 -45.29285792608227,-22.16327503178283,0 -45.29285838787107,-22.163307971406937,0 -45.292858431566515,-22.163341139187096,0 -45.29285801821763,-22.163501783454947,0 -45.292858061768804,-22.16363949161531,0 -45.29285819581524,-22.163644984147027,0 -45.29285820016955,-22.163656316136805,0 -45.29285876446198,-22.163689067656723,0 -45.29285921761786,-22.163815606467825,0 -45.2928589888645,-22.16382660070988,0 -45.29285901149605,-22.16383758878769,0 -45.29285854603311,-22.163876170230292,0 -45.29285803183919,-22.163902916296312,0 -45.292858070189276,-22.16390791656907,0 -45.29285795196742,-22.163913005596417,0 -45.29285784455283,-22.163927291343665,0 -45.29285794288867,-22.16393142259191,0 -45.292857879668574,-22.163939595099784,0 -45.29285826007958,-22.163954355301076,0 -45.29285893599083,-22.163964577917902,0 -45.292858909714475,-22.163967563936495,0 -45.29285919663021,-22.163973783879182,0 -45.292858644451464,-22.163985078182282,0 -45.29285720952996,-22.163992702581016,0 -45.29285652621156,-22.16399500102883,0 -45.29285475332018,-22.163999503749523,0 -45.292853745252685,-22.16400159587737,0 -45.29285139304826,-22.16400552816898,0 -45.29285006252077,-22.16400737924106,0 -45.29284852269367,-22.164009010515315,0 -45.292846983456066,-22.164010600477365,0 -45.29284523750411,-22.164012122599146,0 -45.29283964790759,-22.16401534392772,0 -45.29283562528734,-22.164016513019437,0 -45.29283127843526,-22.16401710726217,0 -45.29282708978309,-22.16401700061251,0 -45.292824917543875,-22.16401667356303,0 -45.29281926423005,-22.164014425577097,0 -45.29281762805049,-22.16401319373517,0 -45.292815939729756,-22.164011891642748,0 -45.292813238481244,-22.16400876901534,0 -45.292810984764614,-22.164004970414894,0 -45.292809979977186,-22.16400273873184,0 -45.292809317916166,-22.164000523572035,0 -45.292808183129544,-22.163995580979154,0 -45.29280759238498,-22.163990403857564,0 -45.29280742022836,-22.163987497120797,0 -45.29280736376433,-22.16398158514826,0 -45.29280757717827,-22.16397522409269,0 -45.29280781682752,-22.163971895108702,0 -45.292807894805925,-22.16396828476575,0 -45.29280861280297,-22.163956917869374,0 -45.29280869011923,-22.163952821570707,0 -45.29280938841348,-22.163935155479926,0 -45.29280934162865,-22.163930750395792,0 -45.29280904291555,-22.163858245287738,0 -45.29280820610013,-22.163803328412556,0 -45.292808272110655,-22.163797764735335,0 -45.292808222967565,-22.163792288908933,0 -45.29280829756769,-22.163775325022733,0 -45.292808468374574,-22.16377008938098,0 -45.29280925425119,-22.16371990425637,0 -45.292809480603474,-22.16371461112708,0 -45.29280980056107,-22.163692399096,0 -45.29280973965888,-22.163686822311593,0 -45.292809815951266,-22.163681241636226,0 -45.29280964638234,-22.1636591998646,0 -45.2928079768388,-22.16358199179811,0 -45.29280793389079,-22.163548950049254,0 -45.29280809412691,-22.16354337247507,0 -45.292808089212485,-22.163537876740328,0 -45.29280825011201,-22.163532300164054,0 -45.292808286392734,-22.163526747698974,0 -45.2928095721234,-22.16346058863519,0 -45.292809515511735,-22.163455106953553,0 -45.29280961713967,-22.163443757912944,0 -45.29280954854253,-22.163438667971068,0 -45.29280836623139,-22.16338918096026,0 -45.29280869402701,-22.16336731293015,0 -45.29280866440953,-22.163361845921795,0 -45.292808924633825,-22.163356414255162,0 -45.29280933429659,-22.163334445574442,0 -45.2928095571726,-22.163328915395425,0 -45.29280954944544,-22.16332350322266,0 -45.29280968763935,-22.16331797889889,0 -45.29280980170082,-22.16328507640935,0 -45.29280863816699,-22.1631967708444,0 -45.292809374602996,-22.16311362045267,0 -45.2928092609693,-22.16310834530271,0 -45.292809138827536,-22.16300302285659,0 -45.29280925712094,-22.16299788555166,0 -45.29280930397382,-22.162719082719263,0 -45.29280918492688,-22.162716856356898,0 -45.292808943996434,-22.162714687447327,0 -45.292808505518984,-22.162713031624197,0 -45.292808207041446,-22.162711256756488,0 -45.29280776567604,-22.16270959541764,0 -45.292806388969574,-22.16270707984152,0 -45.29280488097745,-22.1627049600948,0 -45.29280286740169,-22.16270375395812,0 -45.29280066921851,-22.16270316313714,0 -45.2927995210153,-22.162703162847578,0 -45.29279836349351,-22.162703203065572,0 -45.29279702026041,-22.16270363774419,0 -45.29279283856966,-22.162705656436586,0 -45.292789595850884,-22.162708202284627,0 -45.292786104032295,-22.162711685164457,0 -45.29278241902371,-22.162716262969997,0 -45.292778861736046,-22.1627213395364,0 -45.29277519113622,-22.16272754947398,0 -45.29277169248171,-22.162734628799175,0 -45.29277007416958,-22.162738406958958,0 -45.29276849534987,-22.162742381592636,0 -45.29276714491447,-22.16274635884808,0 -45.292765787747435,-22.162750610698193,0 -45.29276462923348,-22.162754981594116,0 -45.2927635630922,-22.162759518515042,0 -45.29276188461854,-22.162768920969018,0 -45.29276055751838,-22.16277876914363,0 -45.29275941749629,-22.162794063460655,0 -45.292758825870344,-22.162809917441724,0 -45.292758726915004,-22.16283152770756,0 -45.292760140647445,-22.16290260809385,0 -45.29276013571952,-22.16290812504211,0 -45.292760295421836,-22.16291357041417,0 -45.29276046109132,-22.162929955575326,0 -45.29276039241648,-22.16295219951852,0 -45.29276051521614,-22.162957688293837,0 -45.292760445580015,-22.16301915796929,0 -45.29276012421986,-22.16303035555499,0 -45.29275997290975,-22.163058496880293,0 -45.29275975010755,-22.163063746058224,0 -45.29275935941943,-22.163108266776955,0 -45.292759492130926,-22.16311379929905,0 -45.292759784387755,-22.16317505687915,0 -45.29275935082002,-22.16323608608554,0 -45.29275943065287,-22.163241653466713,0 -45.29275936789309,-22.163247213337208,0 -45.292759497955345,-22.16328081940066,0 -45.29275966040293,-22.1632861137737,0 -45.29275986239209,-22.16335232513287,0 -45.29276034079789,-22.163385442286057,0 -45.29276038596935,-22.163407414137065,0 -45.29276003354034,-22.163429337486733,0 -45.292759498397125,-22.16344596642811,0 -45.2927598155658,-22.163588721316167,0 -45.292759721301046,-22.16359422728073,0 -45.292759645658684,-22.163610861252955,0 -45.29275947994928,-22.16361605648952,0 -45.292759407885605,-22.163665672513847,0 -45.29276005812839,-22.16369296663423,0 -45.29276029150224,-22.163725979725566,0 -45.29276016462316,-22.16373136645956,0 -45.29276016229019,-22.163736809511686,0 -45.29276003496711,-22.163742251357352,0 -45.292760021539664,-22.16374772606404,0 -45.29275982647037,-22.1637531261965,0 -45.292759769037254,-22.16375852650192,0 -45.292759202857276,-22.16378040644708,0 -45.292759011577964,-22.163802461943973,0 -45.29275912536083,-22.163807937099516,0 -45.292759085678945,-22.16381343255914,0 -45.29275963830893,-22.163851884393715,0 -45.29275959611247,-22.163857384718508,0 -45.29275975345788,-22.163862807828096,0 -45.2927604661914,-22.163911498228767,0 -45.29276035529001,-22.163916699735836,0 -45.29276020152247,-22.1639372788474,0 -45.29275944247373,-22.163967098520693,0 -45.292759474025125,-22.163970791882782,0 -45.29275942737761,-22.163978001694634,0 -45.29275980446741,-22.163981504965765,0 -45.2927600001889,-22.163988228939203,0 -45.292760728722435,-22.16400544541317,0 -45.29276019559842,-22.164010422150742,0 -45.292759359019264,-22.164015281466185,0 -45.29275788691567,-22.164019757685683,0 -45.29275574252967,-22.16402415508664,0 -45.29275323397394,-22.164027903366698,0 -45.29275180973953,-22.164029717030203,0 -45.29275008560602,-22.164031351794012,0 -45.292748307926054,-22.164032875442896,0 -45.29274656803823,-22.164034341229115,0 -45.29274250569326,-22.164036660588895,0 -45.29273844549616,-22.164038235523652,0 -45.29273412674357,-22.164039284648275,0 -45.29272980688499,-22.164039381116265,0 -45.29272582761089,-22.164038826734995,0 -45.29272203405349,-22.164037337204796,0 -45.2927186501585,-22.16403514485727,0 -45.292717229196306,-22.1640337444389,0 -45.29271577843088,-22.16403222632672,0 -45.29271342087467,-22.164028426051697,0 -45.292712347305944,-22.16402630381915,0 -45.29271134599399,-22.164024068896722,0 -45.29270997416881,-22.164019166091595,0 -45.29270912398205,-22.1640138503809,0 -45.29270880331761,-22.16401117255261,0 -45.29270857495533,-22.164008264653145,0 -45.29270849406842,-22.164005260309278,0 -45.292708720404086,-22.164002224025932,0 -45.29270866599552,-22.163999073096523,0 -45.29271012816846,-22.163969032278132,0 -45.292710595639285,-22.163905415037796,0 -45.29271027512315,-22.163883864230986,0 -45.292710382331634,-22.163878433442274,0 -45.29271003398891,-22.16367812132479,0 -45.29271084361675,-22.16362209953364,0 -45.292710369643466,-22.1635725524928,0 -45.29271006790775,-22.163561620094114,0 -45.29270982542053,-22.163539902789488,0 -45.29270981707469,-22.163528897953793,0 -45.29270998026918,-22.16352345247429,0 -45.29271001544293,-22.163518007855576,0 -45.292711151294675,-22.163463058505787,0 -45.29271084367834,-22.163419285960405,0 -45.292710669771324,-22.16341381405963,0 -45.292710610426504,-22.163408357453527,0 -45.2927102909397,-22.16339739098797,0 -45.29271017964463,-22.16338657256757,0 -45.292709174906506,-22.163331712270086,0 -45.2927092256116,-22.16332624064658,0 -45.29270916367801,-22.163320719283693,0 -45.29270936626388,-22.163309702394457,0 -45.292710426787295,-22.163232442674982,0 -45.29271039848147,-22.163221475113726,0 -45.29271055536664,-22.16321037549144,0 -45.29271041682654,-22.16309472623037,0 -45.29271015502605,-22.163083764034926,0 -45.292710193158804,-22.163078208297257,0 -45.29270997436205,-22.163072760785088,0 -45.29270974654113,-22.163011634095348,0 -45.292709907103166,-22.16295614636424,0 -45.29270968193681,-22.162922968514447,0 -45.29270987446731,-22.16290175603235,0 -45.292710156471756,-22.16289176607707,0 -45.2927104346673,-22.1628870446641,0 -45.292711272277494,-22.162865041207148,0 -45.29271134127051,-22.162857475757693,0 -45.29271127081836,-22.162853893638168,0 -45.29271131729265,-22.16285040610432,0 -45.29271098662789,-22.162832848638093,0 -45.29271062250797,-22.162827925796993,0 -45.292709991028836,-22.162823469615166,0 -45.292708939458095,-22.16281986035574,0 -45.29270827851297,-22.16281819088612,0 -45.292707475269374,-22.162816663877013,0 -45.292705441665575,-22.16281416909686,0 -45.292703209480536,-22.16281236596834,0 -45.292700784033826,-22.16281127997523,0 -45.29269802443745,-22.16281099351139,0 -45.29269658876321,-22.16281112838786,0 -45.29269513393227,-22.162811325401496,0 -45.29269183302643,-22.162812561533208,0 -45.29268838760055,-22.162814462172143,0 -45.29268488588064,-22.16281733208291,0 -45.29268091954751,-22.162821354927278,0 -45.292677384749894,-22.162825951895467,0 -45.29267386606809,-22.162831484936323,0 -45.29267040092534,-22.16283777245616,0 -45.29266893141718,-22.16284133224006,0 -45.29266750251288,-22.16284493887053,0 -45.292666273666434,-22.16284857367982,0 -45.2926640413943,-22.162856348812696,0 -45.29266302428752,-22.162860445254264,0 -45.2926613275099,-22.162873438233078,0 -45.29266008882486,-22.162887161929277,0 -45.29265941250879,-22.162901561502572,0 -45.29265931164503,-22.162926530875577,0 -45.29266090723129,-22.162968128541973,0 -45.292661444353165,-22.16298956312027,0 -45.292661639387624,-22.163005895114342,0 -45.292661319953716,-22.163078371636665,0 -45.29266087808633,-22.163100649694037,0 -45.2926609829852,-22.16310626481469,0 -45.29266091741051,-22.16311190790356,0 -45.29266160502769,-22.163228648647504,0 -45.29266144789266,-22.163234251297542,0 -45.29266088806865,-22.16339003895152,0 -45.29266074010633,-22.163395577948478,0 -45.29266047253465,-22.16341236179114,0 -45.29266051486712,-22.163417830177288,0 -45.2926601172413,-22.16345641433216,0 -45.292660239677915,-22.16347848551969,0 -45.292660437765186,-22.163484011394793,0 -45.2926604849782,-22.163489596996705,0 -45.29266151507855,-22.163577710461407,0 -45.292661400647276,-22.16358878122272,0 -45.2926614645576,-22.16360521517622,0 -45.29266162825663,-22.16361057967761,0 -45.29266151653363,-22.163616026500087,0 -45.29266159054731,-22.16365409953221,0 -45.292661249862526,-22.163675655319672,0 -45.29266091606918,-22.16368657007821,0 -45.29266056201525,-22.163741509324264,0 -45.29266066795306,-22.16374700125402,0 -45.292660672271374,-22.163752512024264,0 -45.29266112192116,-22.163763471704623,0 -45.29266115814203,-22.16377444874209,0 -45.29266140255367,-22.16378546339439,0 -45.29266142519217,-22.163818324306284,0 -45.29266126931037,-22.16382376398042,0 -45.29266080311572,-22.163862038267848,0 -45.29266136527238,-22.163978151561963,0 -45.29266124997684,-22.163986485414338,0 -45.29266155498937,-22.16401499035516,0 -45.29266170687962,-22.164018142334136,0 -45.292661829591985,-22.164026810656196,0 -45.29266133616318,-22.164034656268413,0 -45.29266104992639,-22.164037163519474,0 -45.29266002297622,-22.1640419565556,0 -45.29265849059137,-22.164046366325355,0 -45.29265647895816,-22.16405061384792,0 -45.29265392313665,-22.16405439542343,0 -45.292652532479,-22.1640560987682,0 -45.29265103864774,-22.164057807046472,0 -45.292649423006544,-22.164059366815213,0 -45.29264397140641,-22.164062802190823,0 -45.292639704934345,-22.164064413659027,0 -45.292631169272205,-22.164065210463747,0 -45.29262698713373,-22.164064298963606,0 -45.29262340931487,-22.164062952357053,0 -45.29262161582136,-22.164062030790795,0 -45.29261861858859,-22.164059412930435,0 -45.29261723904723,-22.164057867882132,0 -45.29261494642883,-22.16405436221245,0 -45.29261322271035,-22.164049859960222,0 -45.29261253417194,-22.164047618120485,0 -45.29261146514161,-22.16404271939201,0 -45.29261103368805,-22.164040197720343,0 -45.29261066246519,-22.16403442693261,0 -45.29261059149091,-22.16403150727993,0 -45.29261067376056,-22.16402848692259,0 -45.292610590512545,-22.164025215872705,0 -45.29261082738882,-22.164018478310417,0 -45.29261129383551,-22.164011377676008,0 -45.29261193686155,-22.163981707041074,0 -45.29261181608929,-22.16397232448339,0 -45.29261167947777,-22.163866045110545,0 -45.292611490415126,-22.163860529973263,0 -45.29261120158401,-22.16383837535044,0 -45.29261102494755,-22.163832783186212,0 -45.29261107957747,-22.16382726981599,0 -45.29261077039125,-22.163799290451408,0 -45.29261139566686,-22.163703781294362,0 -45.29261106613061,-22.16367569735371,0 -45.29261148212841,-22.16362584496392,0 -45.29261085980656,-22.163587196389983,0 -45.292610930510385,-22.163554061780484,0 -45.29261115310154,-22.163548610998667,0 -45.292611263202275,-22.163543078340638,0 -45.29261143856464,-22.16351005289132,0 -45.29261064834775,-22.163389230183935,0 -45.29261098797383,-22.163345266648072,0 -45.29261087246922,-22.16333444802039,0 -45.292611021368465,-22.163323458755908,0 -45.29261091358496,-22.16331801020975,0 -45.29261094136609,-22.163312554912856,0 -45.29261072668385,-22.163301539052746,0 -45.29261082077342,-22.163290605378176,0 -45.292610722601445,-22.163285145601183,0 -45.29261072826752,-22.163279623686577,0 -45.29261033716742,-22.163235670948374,0 -45.29261056689981,-22.163224654677176,0 -45.292610459678585,-22.16321368614432,0 -45.29261082046568,-22.163202730704246,0 -45.292611013114694,-22.163169762217095,0 -45.29261135807781,-22.163158781634092,0 -45.29261132819771,-22.1631422058383,0 -45.292611549307765,-22.16313667841616,0 -45.29261143634463,-22.163131553030876,0 -45.292611061578114,-22.162996205993576,0 -45.292612148569766,-22.162942243400806,0 -45.29261158808675,-22.16293583038498,0 -45.292610926082524,-22.162931968462047,0 -45.29261046506048,-22.1629301546114,0 -45.29260927025224,-22.162926822922937,0 -45.29260781821469,-22.16292398565399,0 -45.29260595934051,-22.162921511714213,0 -45.29260172710826,-22.162918120856556,0 -45.29259934989448,-22.162917084750056,0 -45.29259772097212,-22.16291704891867,0 -45.2925933823879,-22.162917051175274,0 -45.29258527393772,-22.162919936382583,0 -45.29257776977228,-22.1629241756797,0 -45.29257504111858,-22.162926247352022,0 -45.29257160094375,-22.1629296363663,0 -45.29256929970925,-22.162933128299766,0 -45.29256856098402,-22.16293426330017,0 -45.29256790893948,-22.162935436467908,0 -45.29256745984345,-22.162936599654497,0 -45.292567013410306,-22.162937756503595,0 -45.29256570884287,-22.16294265174339,0 -45.29256365991881,-22.162959228167107,0 -45.292563560039746,-22.16296150075191,0 -45.29256326017748,-22.16296391724622,0 -45.29256242217685,-22.16297799944648,0 -45.29256239768221,-22.162984632111467,0 -45.2925621847365,-22.16299205487095,0 -45.29256216401707,-22.163018020191117,0 -45.29256291496701,-22.163079334496278,0 -45.29256283607765,-22.163084864469017,0 -45.29256287315361,-22.163090357241224,0 -45.29256262070674,-22.163101321083243,0 -45.29256264373152,-22.16310686263012,0 -45.292562107790665,-22.163195576506695,0 -45.29256240806243,-22.163212350849033,0 -45.29256235713009,-22.163218003584277,0 -45.29256248936982,-22.163234717922627,0 -45.292562311918125,-22.16324587837806,0 -45.29256237709898,-22.16326814865868,0 -45.29256218589053,-22.163279372010162,0 -45.29256213712644,-22.16332393034374,0 -45.29256262391101,-22.163390388604668,0 -45.2925625164239,-22.163401534662373,0 -45.29256267819527,-22.16340699395583,0 -45.29256236006005,-22.1635012065797,0 -45.292561786806914,-22.163556113006504,0 -45.29256223099502,-22.163589083457072,0 -45.292562653197535,-22.163599848351478,0 -45.29256265225961,-22.163605446353053,0 -45.29256275101715,-22.16361097329543,0 -45.29256288142877,-22.16361641767364,0 -45.29256325129837,-22.16364041319038,0 -45.29256359468766,-22.16364846993218,0 -45.29256388059003,-22.163650496596116,0 -45.292563883684856,-22.16365187252795,0 -45.2925640326245,-22.163653279736494,0 -45.29256429739149,-22.16365386654021,0 -45.29256429516871,-22.163654396542363,0 -45.292564604751654,-22.163655412115414,0 -45.29256464069176,-22.163655949420264,0 -45.29256487824516,-22.163656313194043,0 -45.29256490427639,-22.163656756189166,0 -45.29256501802385,-22.163656922351922,0 -45.29256497512337,-22.163657224431894,0 -45.29256524195945,-22.163657562405405,0 -45.2925885397394,-22.163661353026583,0 -45.29361191166199,-22.16393257382631,0 -45.29378144010061,-22.16397535901959,0 -45.29383423536053,-22.16398996208555,0</coordinates>
      </LineString>
    </Placemark>
  </Document>
</kml>