<?xml version="1.0" encoding="UTF-8"?>
<kml>
  <Document>
    <Placemark>
      <name>R5188438812</name>
      <ExtendedData>
        
          <Data name="Aircraft Name">
            <value>PLOA-19</value>
          </Data>
          <Data name="Flight Controller ID">
            <value>3TNDL3F002RE9M</value>
          </Data>
          <Data name="Pilot Name">
            <value>Matheus Rodrigues</value>
          </Data>
          <Data name="Flight Time">
            <value> 113500</value>
          </Data>
          <Data name="Mode Selection">
            <value>M/M+</value>
          </Data>
          <Data name="Height">
            <value></value>
          </Data>
          <Data name="Route Spacing">
            <value></value>
          </Data>
          <Data name="Task Flight Speed">
            <value></value>
          </Data>
          <Data name="Task Area">
            <value>0.00600000003</value>
          </Data>
          <Data name="Spray amount">
            <value>137</value>
          </Data>
        
      </ExtendedData>
      <Style>
        <LineStyle>
          <color>#FF0000FF</color>
          <width>1</width>
          </LineStyle>
      </Style>
      <LineString>
        <coordinates>-46.79410750521168,-23.600577685346295,0 -46.79397363270415,-23.60063332276878,0 -46.7938581178105,-23.600630363729707,0 -46.79381606535331,-23.600610874769245,0 -46.79386651301274,-23.600569348776403,0 -46.79384248688314,-23.600604843160053,0 -46.793807732687554,-23.600626496152415,0 -46.79399719927931,-23.600616539655288,0 -46.794099577790206,-23.600588375393116,0 -46.79412040114472,-23.60060770723153,0 -46.794135728739676,-23.600580057479494,0 -46.79411721154733,-23.60057234552861,0</coordinates>
      </LineString>
    </Placemark>
  </Document>
</kml>