<?xml version="1.0" encoding="UTF-8"?>
<kml>
  <Document>
    <Placemark>
      <name>R5696465358</name>
      <ExtendedData>
        
          <Data name="Aircraft Name">
            <value>PLOA-19</value>
          </Data>
          <Data name="Flight Controller ID">
            <value>3TNDL3F002RE9M</value>
          </Data>
          <Data name="Pilot Name">
            <value>Matheus Rodrigues</value>
          </Data>
          <Data name="Flight Time">
            <value> 186100</value>
          </Data>
          <Data name="Mode Selection">
            <value>M/M+</value>
          </Data>
          <Data name="Height">
            <value></value>
          </Data>
          <Data name="Route Spacing">
            <value></value>
          </Data>
          <Data name="Task Flight Speed">
            <value></value>
          </Data>
          <Data name="Task Area">
            <value>0.040000000200000004</value>
          </Data>
          <Data name="Spray amount">
            <value>1149</value>
          </Data>
        
      </ExtendedData>
      <Style>
        <LineStyle>
          <color>#FF0000FF</color>
          <width>1</width>
          </LineStyle>
      </Style>
      <LineString>
        <coordinates>-46.74545587310203,-23.503654233819724,0 -46.74541283558083,-23.503603315630386,0 -46.74529076792585,-23.503569227894218,0 -46.74530392009339,-23.50349157343176,0 -46.745351138369216,-23.503481052914914,0 -46.74541598129224,-23.503499849809476,0 -46.74542073793543,-23.503590963908724,0 -46.74541557099313,-23.50361012733997,0 -46.74540488393167,-23.503629758417997,0 -46.74537048336579,-23.50363564577066,0 -46.745321260128684,-23.503560990768516,0 -46.7453203028676,-23.503540538957974,0 -46.74540159778367,-23.50351319395702,0 -46.745397277279004,-23.50351602080552,0 -46.74537075631785,-23.503577870098617,0 -46.74545545643706,-23.503647240988894,0</coordinates>
      </LineString>
    </Placemark>
  </Document>
</kml>