<?xml version="1.0" encoding="UTF-8"?>
<kml>
  <Document>
    <Placemark>
      <name>R6207458085</name>
      <ExtendedData>
        
          <Data name="Aircraft Name">
            <value>PLOA-19</value>
          </Data>
          <Data name="Flight Controller ID">
            <value>3TNDL3F002RE9M</value>
          </Data>
          <Data name="Pilot Name">
            <value>Matheus Rodrigues</value>
          </Data>
          <Data name="Flight Time">
            <value> 320200</value>
          </Data>
          <Data name="Mode Selection">
            <value>M/M+</value>
          </Data>
          <Data name="Height">
            <value></value>
          </Data>
          <Data name="Route Spacing">
            <value></value>
          </Data>
          <Data name="Task Flight Speed">
            <value></value>
          </Data>
          <Data name="Task Area">
            <value>0.08000000040000001</value>
          </Data>
          <Data name="Spray amount">
            <value>2411</value>
          </Data>
        
      </ExtendedData>
      <Style>
        <LineStyle>
          <color>#FF0000FF</color>
          <width>1</width>
          </LineStyle>
      </Style>
      <LineString>
        <coordinates>-46.69622222815905,-23.585591005624682,0 -46.69622239312167,-23.585561515777343,0 -46.69614043891591,-23.585600642918692,0 -46.696116465265305,-23.585603404146603,0 -46.696104071717784,-23.58557930724615,0 -46.69602594625303,-23.585591369394237,0 -46.696029144005955,-23.585579003577173,0 -46.69605873304874,-23.585619043774454,0 -46.69597608386306,-23.58530338512346,0 -46.69600216676392,-23.585293745490596,0 -46.6959443960665,-23.58529252228163,0 -46.696002076940985,-23.58533653260909,0 -46.695992277304384,-23.5852847256826,0 -46.696013873450994,-23.58528827720171,0 -46.69593283825559,-23.58533224693532,0 -46.69600873585893,-23.585349911983137,0 -46.69599451078323,-23.585299887460252,0 -46.69592844812877,-23.585295916037087,0 -46.69593110533637,-23.585355961874054,0 -46.695896168267204,-23.585312423300305,0 -46.695953866395904,-23.58526766386255,0 -46.695955824816515,-23.585259769374495,0 -46.69591052939522,-23.585306833542525,0 -46.695888186718065,-23.585278626130656,0 -46.695915380843715,-23.585453266626917,0 -46.69602956904327,-23.585460229019684,0 -46.69625317091588,-23.585568012490494,0 -46.696265882657215,-23.585568384410816,0</coordinates>
      </LineString>
    </Placemark>
  </Document>
</kml>