<?xml version="1.0" encoding="UTF-8"?>
<kml>
  <Document>
    <Placemark>
      <name>R0404144515</name>
      <ExtendedData>
        
          <Data name="Aircraft Name">
            <value>PLOA-19</value>
          </Data>
          <Data name="Flight Controller ID">
            <value>3TNDL3F002RE9M</value>
          </Data>
          <Data name="Pilot Name">
            <value>Matheus Rodrigues</value>
          </Data>
          <Data name="Flight Time">
            <value> 150700</value>
          </Data>
          <Data name="Mode Selection">
            <value>M/M+</value>
          </Data>
          <Data name="Height">
            <value></value>
          </Data>
          <Data name="Route Spacing">
            <value></value>
          </Data>
          <Data name="Task Flight Speed">
            <value></value>
          </Data>
          <Data name="Task Area">
            <value>0.00533333336</value>
          </Data>
          <Data name="Spray amount">
            <value>1832</value>
          </Data>
        
      </ExtendedData>
      <Style>
        <LineStyle>
          <color>#FF0000FF</color>
          <width>1</width>
          </LineStyle>
      </Style>
      <LineString>
        <coordinates>-46.7419192490252,-23.45587665779999,0 -46.74187211206137,-23.45571074649961,0 -46.74188722496546,-23.455743771096344,0 -46.74189193625987,-23.45574143932087,0 -46.7418874412018,-23.455745844522433,0 -46.741868733398825,-23.455833318619437,0 -46.74190365415507,-23.455908641723305,0 -46.74191917592534,-23.455886693991538,0</coordinates>
      </LineString>
    </Placemark>
  </Document>
</kml>