<?xml version="1.0" encoding="UTF-8"?>
<kml>
  <Document>
    <Placemark>
      <name>R3545909081</name>
      <ExtendedData>
        
          <Data name="Aircraft Name">
            <value>PLOA-19</value>
          </Data>
          <Data name="Flight Controller ID">
            <value>3TNDL3F002RE9M</value>
          </Data>
          <Data name="Pilot Name">
            <value>Matheus Rodrigues</value>
          </Data>
          <Data name="Flight Time">
            <value> 198500</value>
          </Data>
          <Data name="Mode Selection">
            <value>M/M+</value>
          </Data>
          <Data name="Height">
            <value></value>
          </Data>
          <Data name="Route Spacing">
            <value></value>
          </Data>
          <Data name="Task Flight Speed">
            <value></value>
          </Data>
          <Data name="Task Area">
            <value>0.03000000015</value>
          </Data>
          <Data name="Spray amount">
            <value>822</value>
          </Data>
        
      </ExtendedData>
      <Style>
        <LineStyle>
          <color>#FF0000FF</color>
          <width>1</width>
          </LineStyle>
      </Style>
      <LineString>
        <coordinates>-46.763666211474074,-23.57704048896558,0 -46.763660167320666,-23.577052916627892,0 -46.76372151581985,-23.577015212832496,0 -46.76372450516371,-23.57695337449557,0 -46.76380498780796,-23.576887146629225,0 -46.763870990970545,-23.576883672767355,0 -46.76392670664433,-23.576919668948694,0 -46.76392216220801,-23.576951781480002,0 -46.7637998765835,-23.57700610099136,0 -46.763753854880356,-23.57699244821785,0 -46.7637285361831,-23.5769607477187,0 -46.76368435766995,-23.57704646541876,0 -46.76365798090399,-23.577053575147847,0</coordinates>
      </LineString>
    </Placemark>
  </Document>
</kml>