<?xml version="1.0" encoding="UTF-8"?>
<kml>
  <Document>
    <Placemark>
      <name>R8523535105</name>
      <ExtendedData>
        
          <Data name="Aircraft Name">
            <value>PLOA-19</value>
          </Data>
          <Data name="Flight Controller ID">
            <value>3TNDL3F002RE9M</value>
          </Data>
          <Data name="Pilot Name">
            <value>Matheus Rodrigues</value>
          </Data>
          <Data name="Flight Time">
            <value> 171600</value>
          </Data>
          <Data name="Mode Selection">
            <value>M/M+</value>
          </Data>
          <Data name="Height">
            <value></value>
          </Data>
          <Data name="Route Spacing">
            <value></value>
          </Data>
          <Data name="Task Flight Speed">
            <value></value>
          </Data>
          <Data name="Task Area">
            <value>0.01600000008</value>
          </Data>
          <Data name="Spray amount">
            <value>1316</value>
          </Data>
        
      </ExtendedData>
      <Style>
        <LineStyle>
          <color>#FF0000FF</color>
          <width>1</width>
          </LineStyle>
      </Style>
      <LineString>
        <coordinates>-46.74510205153841,-23.443686374316854,0 -46.74512005964727,-23.443637371854276,0 -46.74503735545395,-23.443558237826686,0 -46.74494636974199,-23.443581040478524,0 -46.74494931873821,-23.443587000029883,0 -46.74491579791296,-23.4436120925671,0 -46.74510140734705,-23.443678252881313,0</coordinates>
      </LineString>
    </Placemark>
  </Document>
</kml>