<?xml version="1.0" encoding="UTF-8"?>
<kml>
  <Document>
    <Placemark>
      <name>R3608900240</name>
      <ExtendedData>
        
          <Data name="Aircraft Name">
            <value>PLOA-19</value>
          </Data>
          <Data name="Flight Controller ID">
            <value>3TNDL3F002RE9M</value>
          </Data>
          <Data name="Pilot Name">
            <value>Matheus Rodrigues</value>
          </Data>
          <Data name="Flight Time">
            <value> 240200</value>
          </Data>
          <Data name="Mode Selection">
            <value>M/M+</value>
          </Data>
          <Data name="Height">
            <value></value>
          </Data>
          <Data name="Route Spacing">
            <value></value>
          </Data>
          <Data name="Task Flight Speed">
            <value></value>
          </Data>
          <Data name="Task Area">
            <value>0.066666667</value>
          </Data>
          <Data name="Spray amount">
            <value>2136</value>
          </Data>
        
      </ExtendedData>
      <Style>
        <LineStyle>
          <color>#FF0000FF</color>
          <width>1</width>
          </LineStyle>
      </Style>
      <LineString>
        <coordinates>-46.80400383774039,-23.59149936920662,0 -46.80432933514256,-23.591560139106782,0 -46.804490905772916,-23.591457962901156,0 -46.8045580711338,-23.591460062313956,0 -46.80462457610356,-23.591354682301098,0 -46.804627729290694,-23.591353380093057,0 -46.80488727095852,-23.59138292477662,0 -46.804935659683785,-23.591411263460618,0 -46.80465016950232,-23.591362180842765,0 -46.80471041774961,-23.591337831879134,0 -46.804891312718084,-23.591390803989874,0 -46.804903961508984,-23.59137655469453,0 -46.8047494178019,-23.591369925566084,0 -46.80467852777238,-23.591392292355117,0 -46.80466677376039,-23.59137494358369,0 -46.80465487969149,-23.59140671797186,0 -46.80460989936647,-23.591497320199863,0 -46.804503587689936,-23.591548236509976,0 -46.80399322040317,-23.591534185129206,0 -46.80402638957504,-23.59151226730544,0</coordinates>
      </LineString>
    </Placemark>
  </Document>
</kml>