<?xml version="1.0" encoding="UTF-8"?>
<kml>
  <Document>
    <Placemark>
      <name>R7573699725</name>
      <ExtendedData>
        
          <Data name="Aircraft Name">
            <value>PLOA-19</value>
          </Data>
          <Data name="Flight Controller ID">
            <value>3TNDL3F002RE9M</value>
          </Data>
          <Data name="Pilot Name">
            <value>Matheus Rodrigues</value>
          </Data>
          <Data name="Flight Time">
            <value> 190100</value>
          </Data>
          <Data name="Mode Selection">
            <value>M/M+</value>
          </Data>
          <Data name="Height">
            <value></value>
          </Data>
          <Data name="Route Spacing">
            <value></value>
          </Data>
          <Data name="Task Flight Speed">
            <value></value>
          </Data>
          <Data name="Task Area">
            <value>0.03066666682</value>
          </Data>
          <Data name="Spray amount">
            <value>1145</value>
          </Data>
        
      </ExtendedData>
      <Style>
        <LineStyle>
          <color>#FF0000FF</color>
          <width>1</width>
          </LineStyle>
      </Style>
      <LineString>
        <coordinates>-46.64802969841277,-23.525797069579077,0 -46.64795340362632,-23.52569850285784,0 -46.64795763401257,-23.52571287885915,0 -46.64778248295693,-23.525683113404178,0 -46.647842993202154,-23.525731124173674,0 -46.647849145351444,-23.525721410218626,0 -46.647911399064704,-23.525606141377004,0 -46.6479970648161,-23.52551647427401,0 -46.64794564339323,-23.525684389387756,0 -46.647872613464116,-23.525703350012588,0 -46.6480279525434,-23.525786703871482,0 -46.64796889955404,-23.525921279292316,0 -46.64804860870466,-23.525979449552626,0 -46.64798602226018,-23.525930361502287,0 -46.64796951564531,-23.525942375080806,0 -46.64813248330084,-23.52595730875905,0</coordinates>
      </LineString>
    </Placemark>
  </Document>
</kml>