<?xml version="1.0" encoding="UTF-8"?>
<kml>
  <Document>
    <Placemark>
      <name>R5672479213</name>
      <ExtendedData>
        
          <Data name="Aircraft Name">
            <value>PLOA-19</value>
          </Data>
          <Data name="Flight Controller ID">
            <value>3TNDL3F002RE9M</value>
          </Data>
          <Data name="Pilot Name">
            <value>Matheus Rodrigues</value>
          </Data>
          <Data name="Flight Time">
            <value> 410000</value>
          </Data>
          <Data name="Mode Selection">
            <value>M/M+</value>
          </Data>
          <Data name="Height">
            <value></value>
          </Data>
          <Data name="Route Spacing">
            <value></value>
          </Data>
          <Data name="Task Flight Speed">
            <value></value>
          </Data>
          <Data name="Task Area">
            <value>0.059333333630000006</value>
          </Data>
          <Data name="Spray amount">
            <value>6304</value>
          </Data>
        
      </ExtendedData>
      <Style>
        <LineStyle>
          <color>#FF0000FF</color>
          <width>1</width>
          </LineStyle>
      </Style>
      <LineString>
        <coordinates>-46.511616936500495,-23.500903694561785,0 -46.51161024037819,-23.500915316931064,0 -46.511620563553215,-23.50087366514581,0 -46.5116031744165,-23.500839581625684,0 -46.51148867545812,-23.50084168388826,0 -46.511493793493855,-23.500838681040786,0 -46.51151673793552,-23.500856533027463,0 -46.51148123561181,-23.500853572705175,0 -46.51157079335359,-23.500847446248077,0 -46.51158264914595,-23.500893010597203,0 -46.511634855737746,-23.500937151915885,0</coordinates>
      </LineString>
    </Placemark>
  </Document>
</kml>