<?xml version="1.0" encoding="UTF-8"?>
<kml>
  <Document>
    <Placemark>
      <name>R6780287692</name>
      <ExtendedData>
        
          <Data name="Aircraft Name">
            <value>PLOA-20</value>
          </Data>
          <Data name="Flight Controller ID">
            <value>3TNDL740026MUT</value>
          </Data>
          <Data name="Pilot Name">
            <value>Leonardo Moreira</value>
          </Data>
          <Data name="Flight Time">
            <value> 188500</value>
          </Data>
          <Data name="Mode Selection">
            <value>M/M+</value>
          </Data>
          <Data name="Height">
            <value></value>
          </Data>
          <Data name="Route Spacing">
            <value></value>
          </Data>
          <Data name="Task Flight Speed">
            <value></value>
          </Data>
          <Data name="Task Area">
            <value>0.014000000070000001</value>
          </Data>
          <Data name="Spray amount">
            <value>1537</value>
          </Data>
        
      </ExtendedData>
      <Style>
        <LineStyle>
          <color>#FF0000FF</color>
          <width>1</width>
          </LineStyle>
      </Style>
      <LineString>
        <coordinates>-46.78545051702605,-23.70389824774726,0 -46.78545074847599,-23.703896394903683,0 -46.78545037961652,-23.703897212395596,0 -46.785461048617016,-23.703895898006795,0 -46.78546202531354,-23.703890944898966,0 -46.78548715833346,-23.70385712206504,0 -46.785490932233834,-23.703847559384297,0 -46.78549222625754,-23.70384313737882,0 -46.78549265810784,-23.70384093476664,0 -46.785494687884736,-23.703834253599634,0 -46.785495006161746,-23.703832465669905,0 -46.78549699471538,-23.703826189263243,0 -46.78549990284767,-23.703817290886484,0 -46.78550004999409,-23.70381713187992,0 -46.785499993143134,-23.703816480363294,0 -46.78550925039266,-23.70377371175654,0 -46.785509050572315,-23.703772473927405,0 -46.78551653551144,-23.703744767890647,0 -46.78551739142393,-23.70373721511528,0 -46.78551731303751,-23.70373500068548,0 -46.785518875686,-23.703728821352808,0 -46.785520629267495,-23.703724578637384,0 -46.785521721803306,-23.70372254749873,0 -46.785524383840226,-23.703719120555586,0 -46.78552926603975,-23.703713233554666,0 -46.78553003580577,-23.70371154068291,0 -46.78553318163253,-23.703706258792238,0 -46.78554398880294,-23.70368703722554,0 -46.78554439377604,-23.703685792221478,0 -46.78554557330496,-23.70368062919419,0 -46.78554548452502,-23.703681120085374,0 -46.78554589933033,-23.703681125218232,0 -46.785545826266976,-23.70368211154722,0 -46.78554739220846,-23.703682169832486,0 -46.785555875005066,-23.703676104178232,0 -46.78556288916262,-23.7036681564596,0 -46.78557018116676,-23.70364934406225,0 -46.78557021012081,-23.703648303186903,0 -46.78557225326615,-23.70364236981441,0 -46.785573082072226,-23.703641404850607,0 -46.78557237650093,-23.703640110276712,0 -46.78557667961486,-23.703635866473494,0 -46.7855767371581,-23.70363478617677,0 -46.78557952577426,-23.703630439052038,0 -46.785589713491774,-23.703614687530138,0 -46.785589193535095,-23.703614100521673,0 -46.78558774539308,-23.70361597970696,0 -46.78558801142417,-23.703612267935934,0 -46.78558778934335,-23.703611493148337,0 -46.78558855452537,-23.70359446824837,0 -46.78558821937877,-23.703590617851162,0 -46.785588388500344,-23.703581893950982,0 -46.78558755332344,-23.703574058634068,0 -46.785586455268124,-23.703570638615066,0 -46.78557781786907,-23.70355476855547,0 -46.785573241529974,-23.703550542131005,0 -46.78557240626887,-23.703550276473162,0 -46.78557066984933,-23.703547894489507,0 -46.78557013685164,-23.703546385742655,0 -46.785568258851946,-23.703544551932332,0 -46.785561219360766,-23.703544488644482,0 -46.78556126491077,-23.70354543303778,0 -46.7855629881864,-23.70354212568105,0 -46.78555967904291,-23.703543454152637,0 -46.78556039125633,-23.703544199719435,0 -46.7855628137979,-23.703545460056922,0 -46.785561697247545,-23.703547492511362,0 -46.78556097652098,-23.703548115358622,0 -46.785561199453106,-23.70354691747522,0 -46.78556103274516,-23.703546706689426,0 -46.78556092023132,-23.703545757215384,0 -46.785556274402516,-23.703544107536477,0 -46.78555630213105,-23.70354109408132,0 -46.78555689217616,-23.70354032282419,0 -46.78555686049043,-23.703537935395012,0 -46.78555658353257,-23.70353814029235,0 -46.78555583067123,-23.703535793430973,0 -46.78555542043121,-23.703535556511913,0 -46.785554778203334,-23.70352834008188,0 -46.78555492773531,-23.703527195429054,0 -46.785555636955095,-23.703525601534125,0 -46.785555521036,-23.703523173354768,0 -46.7855552060403,-23.703522378465657,0 -46.785554583046505,-23.703521623857736,0 -46.785554566562816,-23.703519157794258,0 -46.785554882793384,-23.703517576145227,0 -46.785556187428114,-23.70351545703151,0 -46.78555608443778,-23.703511808847967,0 -46.7855550906638,-23.703508129997566,0 -46.78555376822631,-23.70350671210486,0 -46.78555264958041,-23.703497207593767,0 -46.78555312217219,-23.703492545632184,0 -46.78555355058917,-23.703490338999377,0 -46.785561495392464,-23.70347277963106,0 -46.78556350481266,-23.70347015908687,0 -46.78557511782703,-23.703469507188167,0 -46.78557477844257,-23.703470340482504,0 -46.78557930427346,-23.703468906279305,0 -46.78557817488789,-23.703467949561944,0 -46.78557577408758,-23.703466026773437,0 -46.785575361415226,-23.703466656030255,0 -46.785573243251314,-23.703457458291954,0 -46.78557269992559,-23.703452294144295,0 -46.78557423522911,-23.703429366564748,0 -46.78557317516486,-23.703426071532082,0 -46.785572926899114,-23.703427339712157,0 -46.78557113344149,-23.703424511639064,0 -46.785573187055206,-23.703429472061863,0 -46.78557381587722,-23.703433448279167,0 -46.78557491473708,-23.703435141913033,0 -46.78557473034799,-23.70343566306722,0 -46.785575722363205,-23.703438967636057,0 -46.78557638172029,-23.7034407928482,0 -46.78557180185432,-23.703445426044947,0 -46.785566001596344,-23.703438080694262,0 -46.785564865100895,-23.703437421943068,0 -46.78556362236888,-23.703435024352405,0 -46.78556298756896,-23.703434422088677,0 -46.7855626099689,-23.70343125925961,0 -46.78556425215449,-23.703427775353493,0 -46.78556733151791,-23.703424079489107,0 -46.78558050651657,-23.703415735394177,0 -46.78558071291823,-23.70341468250743,0 -46.7855801051639,-23.703413720474824,0 -46.785579512967125,-23.703411251076293,0 -46.785580077613126,-23.703410530287897,0 -46.78558515041822,-23.703407886763106,0 -46.78558369107814,-23.70340721305628,0 -46.78558348450809,-23.703407669307207,0 -46.78558524563447,-23.7034103820083,0 -46.785585982564065,-23.70341497752937,0 -46.78558934122413,-23.703421917280252,0 -46.785589395118876,-23.703423544343327,0 -46.78559078410858,-23.703428217143838,0 -46.78559155347233,-23.703430924060697,0 -46.78559264132123,-23.703434354788342,0 -46.78560249081432,-23.70343148223919,0 -46.78560268765507,-23.70343066632361,0 -46.78560199917555,-23.7034278371562,0 -46.78560009297021,-23.703425480524157,0 -46.78559891786626,-23.703425739433726,0 -46.785593347173176,-23.703418920943296,0 -46.785593382731925,-23.703417914356468,0 -46.78558796366636,-23.703411690573787,0 -46.785587362048986,-23.70341266946404,0 -46.78558960318575,-23.703415073125544,0 -46.785591001642814,-23.703418890458828,0 -46.78560019212497,-23.70342587789055,0 -46.78560006684142,-23.703427068999627,0 -46.78559980136228,-23.70342722850897,0 -46.78560065932821,-23.703430937140357,0 -46.78560193480308,-23.703433561384372,0 -46.785601226004275,-23.703432549847072,0 -46.78560079546368,-23.703433763050878,0 -46.78560159514732,-23.70343583211274,0 -46.7856019859755,-23.70343679500516,0 -46.78559934344865,-23.703439365862266,0 -46.78560639140619,-23.703437497945806,0 -46.78560608625206,-23.703436293939454,0 -46.785606033199265,-23.703435216613016,0 -46.78560502610362,-23.703433105055282,0 -46.78560161131294,-23.703429211406604,0 -46.78560207818876,-23.703428468914307,0 -46.78560152909093,-23.703427165012684,0 -46.785600062734524,-23.703426739845497,0 -46.785601868400555,-23.703423953538735,0 -46.7855932974508,-23.703416533019077,0 -46.7855941612169,-23.703414586520424,0 -46.785593738356845,-23.703413025507036,0 -46.78559282963947,-23.70341257936549,0 -46.78558908248066,-23.703410796597115,0 -46.785589525435476,-23.703408450335004,0 -46.78559144378372,-23.70340649906827,0 -46.78558970655029,-23.703405579870257,0 -46.785589117478104,-23.703403655492387,0 -46.785589577889546,-23.70340236902163,0 -46.78558915877153,-23.70339856312654,0 -46.7855906485157,-23.703396235076948,0 -46.78559093114274,-23.70339526087661,0 -46.78559859597584,-23.70339004227379,0 -46.78561224586764,-23.703401053264937,0 -46.78561551806783,-23.70340665222017,0 -46.78561846595462,-23.70341692397591,0 -46.785619376804966,-23.703418836212098,0 -46.785622140658155,-23.703423417038092,0 -46.78562379740964,-23.703425654989132,0 -46.785626854956966,-23.703431447403513,0 -46.785628070091406,-23.70343225375687,0 -46.78562892668214,-23.703434141631536,0 -46.785630085555006,-23.703438139292192,0 -46.78563105358373,-23.703450297489567,0 -46.78563148292687,-23.703472836379074,0 -46.7856304627715,-23.70348523305882,0 -46.785629919239966,-23.70348893676579,0 -46.78562903806401,-23.703502771687273,0 -46.78562911616042,-23.703505614351222,0 -46.78562799598028,-23.703516434123966,0 -46.78562810459303,-23.703520167273204,0 -46.785626989670455,-23.703531814998986,0 -46.78562694326914,-23.703535034471848,0 -46.785618690720355,-23.70359567014426,0 -46.785614353544496,-23.70361583682077,0 -46.785612679018314,-23.703621544008907,0 -46.78561079948438,-23.70362722331808,0 -46.78560870682249,-23.703632331694788,0 -46.785603707576556,-23.703642844590515,0 -46.78559824191323,-23.70365293347851,0 -46.78559530554257,-23.703657734743707,0 -46.78559214984149,-23.70366372615394,0 -46.78558885222348,-23.70366812962284,0 -46.78557528572309,-23.703682232403818,0 -46.78556304672128,-23.70369743748505,0 -46.78555677641611,-23.70370429780695,0 -46.78555278480843,-23.70370729874263,0 -46.7855503786757,-23.703711393093773,0 -46.78554677398577,-23.703720948777093,0 -46.78554551286164,-23.703725585588987,0 -46.785545871077915,-23.70373138149475,0 -46.78553155710938,-23.70378021848788,0 -46.785530619536196,-23.7037846439538,0 -46.785526263084144,-23.703799990843194,0 -46.78552609088006,-23.70380321888656,0 -46.785523419497395,-23.703810030177635,0 -46.785515274317135,-23.70382624781924,0 -46.78550673706914,-23.70383925930458,0 -46.7855039705404,-23.70384203895426,0 -46.78548744672559,-23.703863251297005,0 -46.78548667294156,-23.703863579851866,0 -46.78548226356534,-23.703863825698054,0 -46.78548234791564,-23.703863252576962,0 -46.785480905208935,-23.703863414613654,0 -46.78548384246599,-23.70386037640289,0 -46.78548003935898,-23.70386206889359,0 -46.78548045631129,-23.703863589651842,0 -46.785478292143644,-23.703865077326626,0 -46.78547492372154,-23.703864470239445,0 -46.78547705947539,-23.703862336342716,0 -46.785476622243564,-23.703867327621275,0 -46.78547703587948,-23.703867732188645,0 -46.78547584298562,-23.70387069114955,0 -46.78547378721557,-23.703872385587868,0 -46.785467091908025,-23.703875201760294,0 -46.785466207861234,-23.70387747646206,0 -46.78546769962142,-23.703876807816442,0 -46.78546941355949,-23.703875451954428,0 -46.7854718110364,-23.70387522541833,0 -46.78547153305651,-23.703874533678118,0 -46.78547178732356,-23.703873852812652,0 -46.78547135378115,-23.70387278617858,0 -46.78546650546229,-23.703875860915343,0 -46.7854673246139,-23.703873734906793,0 -46.78547434847621,-23.70385955264798,0 -46.78547431470545,-23.703856510848127,0 -46.785474634986784,-23.703854943389356,0 -46.78547467824362,-23.703850626482026,0 -46.785474366070815,-23.703849084120836,0 -46.785474764383075,-23.703847924111784,0 -46.7854761674639,-23.703844300517744,0 -46.78547552312293,-23.703843029370642,0 -46.78547553304051,-23.70383963514131,0 -46.78547611531621,-23.70383776018346,0 -46.78547703824165,-23.70383553328141,0 -46.78547769734613,-23.703833507620026,0 -46.78547832083575,-23.70383162555402,0 -46.78547690620839,-23.703828529018907,0 -46.78547692054509,-23.70382795382073,0 -46.78547386700525,-23.703829219565467,0 -46.78547362114026,-23.703828464495068,0 -46.785470853077264,-23.7038264973335,0 -46.78546702296442,-23.703826093384937,0</coordinates>
      </LineString>
    </Placemark>
  </Document>
</kml>