<?xml version="1.0" encoding="UTF-8"?>
<kml>
  <Document>
    <Placemark>
      <name>R6205007901</name>
      <ExtendedData>
        
          <Data name="Aircraft Name">
            <value>PLOA-19</value>
          </Data>
          <Data name="Flight Controller ID">
            <value>3TNDL3F002RE9M</value>
          </Data>
          <Data name="Pilot Name">
            <value>Matheus Rodrigues</value>
          </Data>
          <Data name="Flight Time">
            <value> 221900</value>
          </Data>
          <Data name="Mode Selection">
            <value>M/M+</value>
          </Data>
          <Data name="Height">
            <value></value>
          </Data>
          <Data name="Route Spacing">
            <value></value>
          </Data>
          <Data name="Task Flight Speed">
            <value></value>
          </Data>
          <Data name="Task Area">
            <value>0.04933333358</value>
          </Data>
          <Data name="Spray amount">
            <value>1440</value>
          </Data>
        
      </ExtendedData>
      <Style>
        <LineStyle>
          <color>#FF0000FF</color>
          <width>1</width>
          </LineStyle>
      </Style>
      <LineString>
        <coordinates>-46.755655967839694,-23.448688400642556,0 -46.75555199616699,-23.449026396045525,0 -46.75558537471046,-23.449124489421248,0 -46.755559167498745,-23.44926444131156,0 -46.75552403350536,-23.449371767912634,0 -46.75555783799357,-23.449394381606346,0 -46.755557881812116,-23.44936581598891,0 -46.75561565247965,-23.44935758085642,0 -46.75562079284987,-23.4490950891025,0 -46.75562537006343,-23.44886848149297,0 -46.75560037741136,-23.448858940465644,0 -46.755599112592954,-23.44883104064731,0 -46.755648958213754,-23.448780384183934,0 -46.75567753433924,-23.4487971598994,0 -46.75571974674953,-23.44878966780637,0 -46.75571749523399,-23.448747070095454,0 -46.755705862850334,-23.448759249807832,0 -46.75564473247145,-23.44876315591085,0 -46.75561985512066,-23.448831769148015,0 -46.755547606468454,-23.449228986359866,0 -46.75562163255921,-23.449229475362056,0 -46.75563090777448,-23.449238451241147,0 -46.75563272621298,-23.44924509888826,0 -46.755628470080275,-23.44930088140673,0 -46.755625025658745,-23.449313123605766,0 -46.75559544550841,-23.449337905344674,0 -46.75560909735974,-23.449179999481498,0 -46.755707354389855,-23.44880942034352,0 -46.75565140740473,-23.448747062923786,0 -46.755652254312324,-23.448684417298775,0</coordinates>
      </LineString>
    </Placemark>
  </Document>
</kml>