<?xml version="1.0" encoding="UTF-8"?>
<kml>
  <Document>
    <Placemark>
      <name>R4890765833</name>
      <ExtendedData>
        
          <Data name="Aircraft Name">
            <value>PLOA-19</value>
          </Data>
          <Data name="Flight Controller ID">
            <value>3TNDL3F002RE9M</value>
          </Data>
          <Data name="Pilot Name">
            <value>Matheus Rodrigues</value>
          </Data>
          <Data name="Flight Time">
            <value> 483700</value>
          </Data>
          <Data name="Mode Selection">
            <value>M/M+</value>
          </Data>
          <Data name="Height">
            <value></value>
          </Data>
          <Data name="Route Spacing">
            <value></value>
          </Data>
          <Data name="Task Flight Speed">
            <value></value>
          </Data>
          <Data name="Task Area">
            <value>0.04066666687</value>
          </Data>
          <Data name="Spray amount">
            <value>4329</value>
          </Data>
        
      </ExtendedData>
      <Style>
        <LineStyle>
          <color>#FF0000FF</color>
          <width>1</width>
          </LineStyle>
      </Style>
      <LineString>
        <coordinates>-46.63487528254548,-23.566138520304317,0 -46.63479227289811,-23.56621855410421,0 -46.63473768133407,-23.566398715123327,0 -46.63474510785227,-23.56636479820442,0 -46.63473600583473,-23.56641757714262,0 -46.63473526228668,-23.566416186555667,0 -46.63474897369838,-23.566421567559956,0 -46.634717056317115,-23.566390743538218,0 -46.634770619746995,-23.5663517688807,0 -46.63475583524977,-23.566389165615067,0 -46.634699122943516,-23.566341541457717,0 -46.63469075890416,-23.566329513444668,0 -46.634823619396926,-23.5664275484309,0 -46.63482350884085,-23.5664498590777,0 -46.634756410365675,-23.566494275473953,0 -46.63478127805396,-23.566450096830522,0 -46.634742460935996,-23.566419952638558,0 -46.634729937137706,-23.566385207011017,0 -46.634736858593115,-23.566372229015847,0 -46.63476163229471,-23.566376353460637,0 -46.63474061331308,-23.566361825408254,0 -46.63488599738072,-23.56611580874601,0 -46.63492926883308,-23.566098423253173,0</coordinates>
      </LineString>
    </Placemark>
  </Document>
</kml>