<?xml version="1.0" encoding="UTF-8"?>
<kml>
  <Document>
    <Placemark>
      <name>R4974191605</name>
      <ExtendedData>
        
          <Data name="Aircraft Name">
            <value>PLOA-19</value>
          </Data>
          <Data name="Flight Controller ID">
            <value>3TNDL3F002RE9M</value>
          </Data>
          <Data name="Pilot Name">
            <value>Matheus Rodrigues</value>
          </Data>
          <Data name="Flight Time">
            <value> 192800</value>
          </Data>
          <Data name="Mode Selection">
            <value>M/M+</value>
          </Data>
          <Data name="Height">
            <value></value>
          </Data>
          <Data name="Route Spacing">
            <value></value>
          </Data>
          <Data name="Task Flight Speed">
            <value></value>
          </Data>
          <Data name="Task Area">
            <value>0.02866666681</value>
          </Data>
          <Data name="Spray amount">
            <value>1399</value>
          </Data>
        
      </ExtendedData>
      <Style>
        <LineStyle>
          <color>#FF0000FF</color>
          <width>1</width>
          </LineStyle>
      </Style>
      <LineString>
        <coordinates>-46.74549835001114,-23.506447340048048,0 -46.74556685174288,-23.506528765696938,0 -46.745477454035694,-23.506727304621748,0 -46.74551663660468,-23.506804905267387,0 -46.745510673506054,-23.50683168921076,0 -46.745457640377346,-23.506771768568566,0 -46.74545723363229,-23.506772523046212,0 -46.745361325595454,-23.506703313889737,0 -46.74534903633583,-23.506689042714623,0 -46.74538380529908,-23.50667872508887,0 -46.745366279383155,-23.5066886386651,0 -46.74542439687944,-23.506741884797368,0 -46.745474154750404,-23.506737396883878,0 -46.74552469825269,-23.506614698748535,0 -46.74552499477338,-23.506597274749513,0 -46.7454842385518,-23.506535486816187,0 -46.74549211223141,-23.506465387907223,0</coordinates>
      </LineString>
    </Placemark>
  </Document>
</kml>