<?xml version="1.0" encoding="UTF-8"?>
<kml>
  <Document>
    <Placemark>
      <name>R2184280376</name>
      <ExtendedData>
        
          <Data name="Aircraft Name">
            <value>PLOA-19</value>
          </Data>
          <Data name="Flight Controller ID">
            <value>3TNDL3F002RE9M</value>
          </Data>
          <Data name="Pilot Name">
            <value>Matheus Rodrigues</value>
          </Data>
          <Data name="Flight Time">
            <value> 314800</value>
          </Data>
          <Data name="Mode Selection">
            <value>M/M+</value>
          </Data>
          <Data name="Height">
            <value></value>
          </Data>
          <Data name="Route Spacing">
            <value></value>
          </Data>
          <Data name="Task Flight Speed">
            <value></value>
          </Data>
          <Data name="Task Area">
            <value>0.25933333463</value>
          </Data>
          <Data name="Spray amount">
            <value>3993</value>
          </Data>
        
      </ExtendedData>
      <Style>
        <LineStyle>
          <color>#FF0000FF</color>
          <width>1</width>
          </LineStyle>
      </Style>
      <LineString>
        <coordinates>-46.75575645498706,-23.49204874737835,0 -46.75568501730409,-23.49216586075849,0 -46.755652286050214,-23.4921887336614,0 -46.75543811272998,-23.492229864860793,0 -46.75532463833081,-23.49228493599676,0 -46.75504695663067,-23.492350705983736,0 -46.75502057750187,-23.4923737551364,0 -46.75503441751444,-23.492477802311814,0 -46.75514280855475,-23.49270270882269,0 -46.75521777948632,-23.492819676750212,0 -46.75530444017812,-23.49289745050596,0 -46.75539218739107,-23.49292476626006,0 -46.75543629151249,-23.49290270915548,0 -46.75544956603491,-23.492760697947915,0 -46.75547742823037,-23.492696511668324,0 -46.75565622503502,-23.492567598153077,0 -46.755660601194954,-23.492525118693248,0 -46.755630960148935,-23.492448624243103,0 -46.75560212082418,-23.492411872450724,0 -46.75555582617567,-23.4923968019441,0 -46.75551558925064,-23.49241696145546,0 -46.75544191697376,-23.49250993033939,0 -46.75514269609932,-23.492582318244605,0 -46.755107138366114,-23.492570788183674,0 -46.755112627685335,-23.492543590094424,0 -46.75537094893229,-23.49247515969895,0 -46.7555982683105,-23.49236031304772,0 -46.75565447244895,-23.49230651900267,0 -46.755799449535814,-23.492065655473287,0 -46.755837124419884,-23.492040943887744,0 -46.7558709699772,-23.492097740053982,0 -46.75604012157616,-23.492129880614065,0 -46.756179826931984,-23.492189411823645,0 -46.75619071420505,-23.49220991264384,0 -46.75595720269624,-23.49211639195189,0 -46.75544881770197,-23.492205303000905,0 -46.755303391615335,-23.49226032051547,0 -46.75516555952033,-23.492281518452998,0 -46.75513842241953,-23.492326779321225,0 -46.75514128043122,-23.4924142507085,0 -46.75520236128701,-23.492675777954585,0 -46.75509183090364,-23.49282032307312,0 -46.75514576146238,-23.492903825460353,0 -46.755226100590086,-23.49292479460801,0 -46.755310057046444,-23.49290040598851,0 -46.7553456790399,-23.492868354146054,0 -46.75547690533131,-23.492437310647976,0 -46.75559349384914,-23.49225737720065,0 -46.755715520670265,-23.49216742067756,0 -46.755713937664,-23.492124614721227,0 -46.755752802838316,-23.492060030130748,0</coordinates>
      </LineString>
    </Placemark>
  </Document>
</kml>