<?xml version="1.0" encoding="UTF-8"?>
<kml>
  <Document>
    <Placemark>
      <name>R0016068239</name>
      <ExtendedData>
        
          <Data name="Aircraft Name">
            <value>PLOA-19</value>
          </Data>
          <Data name="Flight Controller ID">
            <value>3TNDL3F002RE9M</value>
          </Data>
          <Data name="Pilot Name">
            <value>Matheus Rodrigues</value>
          </Data>
          <Data name="Flight Time">
            <value> 347000</value>
          </Data>
          <Data name="Mode Selection">
            <value>M/M+</value>
          </Data>
          <Data name="Height">
            <value></value>
          </Data>
          <Data name="Route Spacing">
            <value></value>
          </Data>
          <Data name="Task Flight Speed">
            <value></value>
          </Data>
          <Data name="Task Area">
            <value>0.28066666807</value>
          </Data>
          <Data name="Spray amount">
            <value>6445</value>
          </Data>
        
      </ExtendedData>
      <Style>
        <LineStyle>
          <color>#FF0000FF</color>
          <width>1</width>
          </LineStyle>
      </Style>
      <LineString>
        <coordinates>-46.642295545374274,-23.533195953009024,0 -46.642375556602936,-23.5332626648477,0 -46.64250449775423,-23.533097174539176,0 -46.64241927248759,-23.533233317746504,0 -46.64263184696102,-23.533401895083284,0 -46.64262694163277,-23.533416631837053,0 -46.64265767557569,-23.533383491425383,0 -46.64258140558081,-23.53336011507272,0 -46.64253352731833,-23.53332327745483,0 -46.64247443395128,-23.533201714940965,0 -46.642446226043496,-23.533261954637677,0 -46.642430100612145,-23.53339596598383,0 -46.64249255605894,-23.533289611225104,0 -46.64265147092745,-23.533311931942198,0 -46.642779995116854,-23.533378833775917,0 -46.64289271590201,-23.53356412535115,0 -46.64293791394092,-23.533586426201225,0 -46.64301822362998,-23.533589259068457,0 -46.64277610530397,-23.533528406773915,0 -46.64236572714354,-23.53357212124567,0 -46.642376931769874,-23.533468005988265,0 -46.64240976232242,-23.533392335700142,0 -46.64245414508633,-23.53336721652158,0 -46.64257201020443,-23.53335075983132,0 -46.64275369897569,-23.533409192792213,0 -46.64300134521378,-23.533537378406024,0 -46.64303877102662,-23.533586033707138,0 -46.643030867325066,-23.533647883338954,0 -46.64297270673129,-23.533697907627342,0 -46.642882716142076,-23.533702422924748,0 -46.64249402732854,-23.533482462297922,0 -46.64237022020947,-23.533499689281275,0 -46.642367238910616,-23.53353138330899,0 -46.64246613991558,-23.533604475301274,0 -46.64288448306331,-23.533645431553673,0 -46.64268040438887,-23.533449947221772,0 -46.64259318536095,-23.533426184784584,0 -46.64251757272475,-23.53345289660743,0 -46.64244630603873,-23.53341640578297,0 -46.642426414104136,-23.533353752546613,0 -46.642436276679994,-23.53318263252847,0 -46.64243612333243,-23.53318007310589,0 -46.64238645519282,-23.533126846918805,0 -46.64231958331767,-23.533228079687028,0</coordinates>
      </LineString>
    </Placemark>
  </Document>
</kml>