<?xml version="1.0" encoding="UTF-8"?>
<kml>
  <Document>
    <Placemark>
      <name>R0088715671</name>
      <ExtendedData>
        
          <Data name="Aircraft Name">
            <value>PLOA-19</value>
          </Data>
          <Data name="Flight Controller ID">
            <value>3TNDL3F002RE9M</value>
          </Data>
          <Data name="Pilot Name">
            <value>Matheus Rodrigues</value>
          </Data>
          <Data name="Flight Time">
            <value> 189600</value>
          </Data>
          <Data name="Mode Selection">
            <value>M/M+</value>
          </Data>
          <Data name="Height">
            <value></value>
          </Data>
          <Data name="Route Spacing">
            <value></value>
          </Data>
          <Data name="Task Flight Speed">
            <value></value>
          </Data>
          <Data name="Task Area">
            <value>0.01733333342</value>
          </Data>
          <Data name="Spray amount">
            <value>987</value>
          </Data>
        
      </ExtendedData>
      <Style>
        <LineStyle>
          <color>#FF0000FF</color>
          <width>1</width>
          </LineStyle>
      </Style>
      <LineString>
        <coordinates>-46.53858916724706,-23.5098705344291,0 -46.5386410483114,-23.50988548888708,0 -46.538572371800335,-23.509750415560156,0 -46.53859392608704,-23.509716899381775,0 -46.538581979433886,-23.509641362013763,0 -46.53858559532282,-23.509637383425446,0 -46.53862063108306,-23.509635115719473,0 -46.5386146057176,-23.5095938395104,0 -46.53858373715229,-23.509554210895825,0 -46.53861361065316,-23.50950989848549,0 -46.53854330483873,-23.50937044627996,0 -46.53847629566454,-23.509367270996552,0 -46.53850956858145,-23.509374640422156,0 -46.538587371137844,-23.509301661951955,0 -46.53856113206042,-23.509313541932933,0 -46.53859157554365,-23.509648055856573,0 -46.53865195673877,-23.509727838486892,0 -46.53882144130836,-23.509846678229366,0 -46.53868141581958,-23.509880592878222,0 -46.538599776130816,-23.50986531756057,0</coordinates>
      </LineString>
    </Placemark>
  </Document>
</kml>