<?xml version="1.0" encoding="UTF-8"?>
<kml>
  <Document>
    <Placemark>
      <name>R0937612976</name>
      <ExtendedData>
        
          <Data name="Aircraft Name">
            <value>PLOA-19</value>
          </Data>
          <Data name="Flight Controller ID">
            <value>3TNDL3F002RE9M</value>
          </Data>
          <Data name="Pilot Name">
            <value>Matheus Rodrigues</value>
          </Data>
          <Data name="Flight Time">
            <value> 402800</value>
          </Data>
          <Data name="Mode Selection">
            <value>M/M+</value>
          </Data>
          <Data name="Height">
            <value></value>
          </Data>
          <Data name="Route Spacing">
            <value></value>
          </Data>
          <Data name="Task Flight Speed">
            <value></value>
          </Data>
          <Data name="Task Area">
            <value>0.058000000290000006</value>
          </Data>
          <Data name="Spray amount">
            <value>2470</value>
          </Data>
        
      </ExtendedData>
      <Style>
        <LineStyle>
          <color>#FF0000FF</color>
          <width>1</width>
          </LineStyle>
      </Style>
      <LineString>
        <coordinates>-46.759717338118776,-23.55559133607477,0 -46.75966434743216,-23.555619935874873,0 -46.75952784945811,-23.55556181883008,0 -46.759298746546285,-23.555459570699746,0 -46.75934723499705,-23.555523142043057,0 -46.75941346636409,-23.555514782054516,0 -46.759415991035645,-23.555497252652824,0 -46.75936738265611,-23.555482050046827,0 -46.759320691996805,-23.555414000427156,0 -46.759272201265944,-23.555450107303606,0 -46.75933216654648,-23.555548517147876,0 -46.75942416078808,-23.555547936250964,0 -46.759380874969445,-23.55545024622942,0 -46.75929782341063,-23.555401183283173,0 -46.75926307000887,-23.555426158689674,0 -46.759307212242625,-23.555531259592115,0 -46.75936253915614,-23.5554879095075,0 -46.759328151353046,-23.555391409427443,0 -46.75926800882389,-23.55542779313937,0 -46.759301016278094,-23.55551090222481,0 -46.75935026007265,-23.555521957301195,0 -46.75938693603514,-23.555494516534708,0 -46.759393415720815,-23.55545118279316,0 -46.75937285433835,-23.555424560964642,0 -46.75943830473868,-23.55550893694043,0 -46.75944605258182,-23.555549333065088,0 -46.75941632830142,-23.555536273727512,0 -46.759320593355056,-23.55541433455781,0 -46.75921199762301,-23.555459693438827,0 -46.7591896011267,-23.555488340732502,0 -46.759232569938675,-23.555536370346353,0 -46.759347356402266,-23.555557079213294,0 -46.759383099996626,-23.555489569426065,0 -46.75921933628423,-23.555440810751325,0 -46.759298467553506,-23.55549324957922,0 -46.759357283110205,-23.55548922069804,0 -46.75937493086093,-23.555427029451245,0 -46.759339490891755,-23.555392325759392,0 -46.75925510507167,-23.555425837026387,0 -46.759242850209404,-23.555489227641726,0 -46.75934533280758,-23.55554994824889,0 -46.75940565617368,-23.55555218310752,0 -46.75942139235294,-23.555519402565686,0 -46.75935972138146,-23.555420962285794,0 -46.75925433163672,-23.555453077546375,0 -46.75922679164098,-23.55550031567782,0 -46.759301998434324,-23.55557308950838,0 -46.75930483695406,-23.555546863489052,0 -46.7593536508964,-23.555517985549088,0 -46.75936633157401,-23.555545807185826,0 -46.75943650879744,-23.555560556070688,0 -46.75942962131285,-23.555560058769945,0 -46.75951510989074,-23.555544926805034,0 -46.75957406241144,-23.555580401128697,0 -46.75968030093909,-23.55557845664199,0 -46.75971864555632,-23.555596316871032,0</coordinates>
      </LineString>
    </Placemark>
  </Document>
</kml>