<?xml version="1.0" encoding="UTF-8"?>
<kml>
  <Document>
    <Placemark>
      <name>R5343820033</name>
      <ExtendedData>
        
          <Data name="Aircraft Name">
            <value>PLOA-19</value>
          </Data>
          <Data name="Flight Controller ID">
            <value>3TNDL3F002RE9M</value>
          </Data>
          <Data name="Pilot Name">
            <value>Matheus Rodrigues</value>
          </Data>
          <Data name="Flight Time">
            <value> 145000</value>
          </Data>
          <Data name="Mode Selection">
            <value>M/M+</value>
          </Data>
          <Data name="Height">
            <value></value>
          </Data>
          <Data name="Route Spacing">
            <value></value>
          </Data>
          <Data name="Task Flight Speed">
            <value></value>
          </Data>
          <Data name="Task Area">
            <value>0.01533333341</value>
          </Data>
          <Data name="Spray amount">
            <value>1454</value>
          </Data>
        
      </ExtendedData>
      <Style>
        <LineStyle>
          <color>#FF0000FF</color>
          <width>1</width>
          </LineStyle>
      </Style>
      <LineString>
        <coordinates>-46.75092161422727,-23.55300062653992,0 -46.7509434307743,-23.55295618099289,0 -46.75105040087828,-23.55288459032826,0 -46.75104691058135,-23.552864456976227,0 -46.75103148599478,-23.552874055064226,0 -46.750948167195,-23.55292061029791,0 -46.75094738433229,-23.552952086830643,0 -46.750900431615605,-23.552976604071166,0 -46.75091492306386,-23.55300909087101,0 -46.75089766662068,-23.553016728764234,0</coordinates>
      </LineString>
    </Placemark>
  </Document>
</kml>