<?xml version="1.0" encoding="UTF-8"?>
<kml>
  <Document>
    <Placemark>
      <name>R8491180255</name>
      <ExtendedData>
        
          <Data name="Aircraft Name">
            <value>PLOA-19</value>
          </Data>
          <Data name="Flight Controller ID">
            <value>3TNDL3F002RE9M</value>
          </Data>
          <Data name="Pilot Name">
            <value>Matheus Rodrigues</value>
          </Data>
          <Data name="Flight Time">
            <value> 121200</value>
          </Data>
          <Data name="Mode Selection">
            <value>M/M+</value>
          </Data>
          <Data name="Height">
            <value></value>
          </Data>
          <Data name="Route Spacing">
            <value></value>
          </Data>
          <Data name="Task Flight Speed">
            <value></value>
          </Data>
          <Data name="Task Area">
            <value>0.01600000008</value>
          </Data>
          <Data name="Spray amount">
            <value>1189</value>
          </Data>
        
      </ExtendedData>
      <Style>
        <LineStyle>
          <color>#FF0000FF</color>
          <width>1</width>
          </LineStyle>
      </Style>
      <LineString>
        <coordinates>-46.799890353046635,-23.600107715392184,0 -46.79993615439568,-23.600085093347815,0 -46.799938049925935,-23.60005885479965,0 -46.799888426623234,-23.59999007864643,0 -46.79972232390897,-23.60005590024205,0 -46.79974138706116,-23.600091726576682,0 -46.799712279599305,-23.600090400381664,0 -46.79970514644151,-23.60005587010281,0 -46.79971668293292,-23.600112517093805,0 -46.79972985679535,-23.60010460913689,0 -46.79976729841425,-23.600192437584937,0 -46.799894390541354,-23.600136825232347,0 -46.799887321096094,-23.600104925025715,0</coordinates>
      </LineString>
    </Placemark>
  </Document>
</kml>