<?xml version="1.0" encoding="UTF-8"?>
<kml>
  <Document>
    <Placemark>
      <name>R5245759525</name>
      <ExtendedData>
        
          <Data name="Aircraft Name">
            <value>PLOA-19</value>
          </Data>
          <Data name="Flight Controller ID">
            <value>3TNDL3F002RE9M</value>
          </Data>
          <Data name="Pilot Name">
            <value>Matheus Rodrigues</value>
          </Data>
          <Data name="Flight Time">
            <value> 216000</value>
          </Data>
          <Data name="Mode Selection">
            <value>M/M+</value>
          </Data>
          <Data name="Height">
            <value></value>
          </Data>
          <Data name="Route Spacing">
            <value></value>
          </Data>
          <Data name="Task Flight Speed">
            <value></value>
          </Data>
          <Data name="Task Area">
            <value>0.066666667</value>
          </Data>
          <Data name="Spray amount">
            <value>1463</value>
          </Data>
        
      </ExtendedData>
      <Style>
        <LineStyle>
          <color>#FF0000FF</color>
          <width>1</width>
          </LineStyle>
      </Style>
      <LineString>
        <coordinates>-46.746072945305094,-23.49236056671835,0 -46.7460905646702,-23.492350492466812,0 -46.746343570947,-23.492491499484615,0 -46.74631131433849,-23.49263853768577,0 -46.74631653329203,-23.492601663981556,0 -46.746375768469754,-23.49258576961255,0 -46.74639581486065,-23.49254263676888,0 -46.74635717265888,-23.492500459079267,0 -46.74633775332774,-23.492437738646796,0 -46.74634613709484,-23.492615514249493,0 -46.74636515765798,-23.492477219333516,0 -46.74633798460833,-23.492564980635933,0 -46.74634347513582,-23.492632197098057,0 -46.746344969390336,-23.49263160301563,0 -46.746352476809314,-23.492601962651214,0 -46.746351354890194,-23.49258932920874,0 -46.74631950000118,-23.492559029936796,0 -46.74632657999661,-23.4924676828007,0 -46.74633592336985,-23.492350241497537,0 -46.74625283617923,-23.492228638135785,0 -46.746074340415184,-23.492322781902978,0 -46.746081936414896,-23.49239817081878,0</coordinates>
      </LineString>
    </Placemark>
  </Document>
</kml>