<?xml version="1.0" encoding="UTF-8"?>
<kml>
  <Document>
    <Placemark>
      <name>R6075121441</name>
      <ExtendedData>
        
          <Data name="Aircraft Name">
            <value>PLOA-19</value>
          </Data>
          <Data name="Flight Controller ID">
            <value>3TNDL3F002RE9M</value>
          </Data>
          <Data name="Pilot Name">
            <value>Matheus Rodrigues</value>
          </Data>
          <Data name="Flight Time">
            <value> 289900</value>
          </Data>
          <Data name="Mode Selection">
            <value>M/M+</value>
          </Data>
          <Data name="Height">
            <value></value>
          </Data>
          <Data name="Route Spacing">
            <value></value>
          </Data>
          <Data name="Task Flight Speed">
            <value></value>
          </Data>
          <Data name="Task Area">
            <value>0.02933333348</value>
          </Data>
          <Data name="Spray amount">
            <value>1654</value>
          </Data>
        
      </ExtendedData>
      <Style>
        <LineStyle>
          <color>#FF0000FF</color>
          <width>1</width>
          </LineStyle>
      </Style>
      <LineString>
        <coordinates>-46.75090923585714,-23.46734378594516,0 -46.75106875920454,-23.467498424314286,0 -46.75106307361588,-23.467578403582475,0 -46.7509979401242,-23.467622706534808,0 -46.75112415175527,-23.467670029872956,0 -46.751103797228325,-23.467687567797924,0 -46.75120703229311,-23.46761225948033,0 -46.7511932762577,-23.46764616217315,0 -46.75123037566689,-23.46766095738154,0 -46.751252043489735,-23.467711509728723,0 -46.751153710335466,-23.467624324739152,0 -46.751097174102114,-23.467647409274644,0 -46.751095483497686,-23.46756090914348,0 -46.7510959378293,-23.467533383007442,0 -46.75106477356804,-23.467491376148118,0 -46.75103782453707,-23.467507439341173,0 -46.7510442600269,-23.46754822656108,0 -46.751071003949356,-23.46757095924845,0 -46.75108220231967,-23.467555483480744,0 -46.7511180387856,-23.467568642858517,0 -46.751126595949536,-23.467537088616435,0 -46.751093275938366,-23.467525836693742,0 -46.751074943015276,-23.467540122811457,0 -46.75106993888667,-23.467595948151494,0 -46.75109147424438,-23.46759998979316,0 -46.751101891952864,-23.467579484465436,0 -46.751099689062734,-23.467558601169344,0 -46.75105981463728,-23.467479513571952,0 -46.75093942651131,-23.467377352152596,0</coordinates>
      </LineString>
    </Placemark>
  </Document>
</kml>