<?xml version="1.0" encoding="UTF-8"?>
<kml>
  <Document>
    <Placemark>
      <name>R6130390531</name>
      <ExtendedData>
        
          <Data name="Aircraft Name">
            <value>PLOA-19</value>
          </Data>
          <Data name="Flight Controller ID">
            <value>3TNDL3F002RE9M</value>
          </Data>
          <Data name="Pilot Name">
            <value>Matheus Rodrigues</value>
          </Data>
          <Data name="Flight Time">
            <value> 169500</value>
          </Data>
          <Data name="Mode Selection">
            <value>M/M+</value>
          </Data>
          <Data name="Height">
            <value></value>
          </Data>
          <Data name="Route Spacing">
            <value></value>
          </Data>
          <Data name="Task Flight Speed">
            <value></value>
          </Data>
          <Data name="Task Area">
            <value>0.037333333520000005</value>
          </Data>
          <Data name="Spray amount">
            <value>2039</value>
          </Data>
        
      </ExtendedData>
      <Style>
        <LineStyle>
          <color>#FF0000FF</color>
          <width>1</width>
          </LineStyle>
      </Style>
      <LineString>
        <coordinates>-46.75221156983826,-23.57592766451412,0 -46.75225108384002,-23.575848985255163,0 -46.75231049819745,-23.575800071604665,0 -46.752256866471924,-23.575785447304725,0 -46.75225482803677,-23.575741925288995,0 -46.75229310155262,-23.575728990792825,0 -46.752320634212644,-23.575758048460898,0 -46.75231374615497,-23.575790073948617,0 -46.75227575802153,-23.575801875477676,0 -46.75222610129409,-23.575768734701235,0 -46.752171497532785,-23.57568749375372,0 -46.75216293882156,-23.575736568880725,0 -46.75227838444634,-23.57585891737611,0 -46.75228394500614,-23.57586908374547,0 -46.75226838521096,-23.575864507882976,0 -46.75221555110755,-23.575915934715983,0</coordinates>
      </LineString>
    </Placemark>
  </Document>
</kml>