<?xml version="1.0" encoding="UTF-8"?>
<kml>
  <Document>
    <Placemark>
      <name>R2087103473</name>
      <ExtendedData>
        
          <Data name="Aircraft Name">
            <value>PLOA-19</value>
          </Data>
          <Data name="Flight Controller ID">
            <value>3TNDL3F002RE9M</value>
          </Data>
          <Data name="Pilot Name">
            <value>Matheus Rodrigues</value>
          </Data>
          <Data name="Flight Time">
            <value> 183800</value>
          </Data>
          <Data name="Mode Selection">
            <value>M/M+</value>
          </Data>
          <Data name="Height">
            <value></value>
          </Data>
          <Data name="Route Spacing">
            <value></value>
          </Data>
          <Data name="Task Flight Speed">
            <value></value>
          </Data>
          <Data name="Task Area">
            <value>0.010000000050000001</value>
          </Data>
          <Data name="Spray amount">
            <value>1224</value>
          </Data>
        
      </ExtendedData>
      <Style>
        <LineStyle>
          <color>#FF0000FF</color>
          <width>1</width>
          </LineStyle>
      </Style>
      <LineString>
        <coordinates>-46.74708283969568,-23.481725169793794,0 -46.747023078646244,-23.4817830738947,0 -46.74700999488528,-23.481857619481694,0 -46.746998417172925,-23.481851397483787,0 -46.74699497360606,-23.48181323463817,0 -46.74709141939521,-23.481757792119264,0 -46.74710071913879,-23.48173360846875,0 -46.747086301460904,-23.481773345192465,0 -46.746958208482944,-23.481717929142285,0</coordinates>
      </LineString>
    </Placemark>
  </Document>
</kml>