<?xml version="1.0" encoding="UTF-8"?>
<kml>
  <Document>
    <Placemark>
      <name>R1216887648</name>
      <ExtendedData>
        
          <Data name="Aircraft Name">
            <value>PLOA-19</value>
          </Data>
          <Data name="Flight Controller ID">
            <value>3TNDL3F002RE9M</value>
          </Data>
          <Data name="Pilot Name">
            <value>Matheus Rodrigues</value>
          </Data>
          <Data name="Flight Time">
            <value> 166700</value>
          </Data>
          <Data name="Mode Selection">
            <value>M/M+</value>
          </Data>
          <Data name="Height">
            <value></value>
          </Data>
          <Data name="Route Spacing">
            <value></value>
          </Data>
          <Data name="Task Flight Speed">
            <value></value>
          </Data>
          <Data name="Task Area">
            <value>0.03200000016</value>
          </Data>
          <Data name="Spray amount">
            <value>1040</value>
          </Data>
        
      </ExtendedData>
      <Style>
        <LineStyle>
          <color>#FF0000FF</color>
          <width>1</width>
          </LineStyle>
      </Style>
      <LineString>
        <coordinates>-46.737527853649695,-23.585921224001375,0 -46.73761367557011,-23.585935553918944,0 -46.73766821932294,-23.586003307364546,0 -46.73766254430658,-23.586054905387726,0 -46.73765856607487,-23.586080248405686,0 -46.737673047844375,-23.586051585277023,0 -46.73778697899461,-23.58607352463859,0 -46.73775072530844,-23.586125288118193,0 -46.73766243197647,-23.586083451424752,0 -46.73765660114859,-23.586047600305207,0 -46.73768038705302,-23.58600532300693,0 -46.73759536070636,-23.585999905610176,0 -46.73760775258257,-23.58588172251169,0 -46.737578683882475,-23.58587238360032,0 -46.73754882172599,-23.585941003906562,0</coordinates>
      </LineString>
    </Placemark>
  </Document>
</kml>