<?xml version="1.0" encoding="UTF-8"?>
<kml>
  <Document>
    <Placemark>
      <name>R4710660516</name>
      <ExtendedData>
        
          <Data name="Aircraft Name">
            <value>PLOA-19</value>
          </Data>
          <Data name="Flight Controller ID">
            <value>3TNDL3F002RE9M</value>
          </Data>
          <Data name="Pilot Name">
            <value>Matheus Rodrigues</value>
          </Data>
          <Data name="Flight Time">
            <value> 292100</value>
          </Data>
          <Data name="Mode Selection">
            <value>M/M+</value>
          </Data>
          <Data name="Height">
            <value></value>
          </Data>
          <Data name="Route Spacing">
            <value></value>
          </Data>
          <Data name="Task Flight Speed">
            <value></value>
          </Data>
          <Data name="Task Area">
            <value>0.14800000074</value>
          </Data>
          <Data name="Spray amount">
            <value>2571</value>
          </Data>
        
      </ExtendedData>
      <Style>
        <LineStyle>
          <color>#FF0000FF</color>
          <width>1</width>
          </LineStyle>
      </Style>
      <LineString>
        <coordinates>-46.786809581599066,-23.583000901404915,0 -46.78683322875338,-23.582807314384517,0 -46.78677018146982,-23.582565269816357,0 -46.786783236634356,-23.582499576457444,0 -46.786874535594094,-23.582457357340214,0 -46.78695431495934,-23.58245794821786,0 -46.78718679856471,-23.58255444527553,0 -46.787236379311075,-23.582646175760374,0 -46.78717262670343,-23.582829622582135,0 -46.78726182226321,-23.582944395067514,0 -46.787287861565204,-23.583010795246846,0 -46.787285330919744,-23.58305927161698,0 -46.78723725927388,-23.583160383724017,0 -46.78723511692318,-23.583222246383382,0 -46.78726610546915,-23.583275445342885,0 -46.78737848419981,-23.58336181439082,0 -46.787358414340844,-23.583388367616248,0 -46.78715621547383,-23.58344399247529,0 -46.78708895903504,-23.58358457518572,0 -46.78703307436855,-23.58362911820978,0 -46.78701722969189,-23.583609420759636,0 -46.787021646703614,-23.583473673511723,0 -46.7869455218646,-23.58342148865595,0 -46.78689965701416,-23.58336103140889,0 -46.78681320845704,-23.583455465006548,0 -46.78672755871095,-23.583493036101675,0 -46.78668218300499,-23.58346077649582,0 -46.78662586497448,-23.583309899987025,0 -46.78661685284241,-23.58320867620781,0 -46.78662799487553,-23.583164810577372,0 -46.78665590317783,-23.58306270294389,0 -46.78686177124989,-23.582867920197778,0 -46.786845282537065,-23.582794179915425,0 -46.78684189433259,-23.58278440011913,0 -46.786834390913114,-23.58283756295323,0 -46.78686254902642,-23.582881869931075,0 -46.78683385432536,-23.582953921819897,0 -46.78684601244503,-23.582988791417623,0</coordinates>
      </LineString>
    </Placemark>
  </Document>
</kml>