<?xml version="1.0" encoding="UTF-8"?>
<kml>
  <Document>
    <Placemark>
      <name>R4353170085</name>
      <ExtendedData>
        
          <Data name="Aircraft Name">
            <value>PLOA-19</value>
          </Data>
          <Data name="Flight Controller ID">
            <value>3TNDL3F002RE9M</value>
          </Data>
          <Data name="Pilot Name">
            <value>Matheus Rodrigues</value>
          </Data>
          <Data name="Flight Time">
            <value> 157300</value>
          </Data>
          <Data name="Mode Selection">
            <value>M/M+</value>
          </Data>
          <Data name="Height">
            <value></value>
          </Data>
          <Data name="Route Spacing">
            <value></value>
          </Data>
          <Data name="Task Flight Speed">
            <value></value>
          </Data>
          <Data name="Task Area">
            <value>0.03800000019</value>
          </Data>
          <Data name="Spray amount">
            <value>1595</value>
          </Data>
        
      </ExtendedData>
      <Style>
        <LineStyle>
          <color>#FF0000FF</color>
          <width>1</width>
          </LineStyle>
      </Style>
      <LineString>
        <coordinates>-46.75565326867556,-23.448696549834317,0 -46.75567419226644,-23.44872653602243,0 -46.75566500044461,-23.448755202551286,0 -46.75566482663164,-23.448752628619676,0 -46.755709141151414,-23.448750351286343,0 -46.75561357462069,-23.448781826399074,0 -46.755688835499726,-23.44881465487904,0 -46.755673081314825,-23.4489255130801,0 -46.75561436536213,-23.449006600784518,0 -46.75554253352541,-23.44922282354613,0 -46.755546675121096,-23.449246649166945,0 -46.75557757993304,-23.44924554750504,0 -46.75558323392712,-23.449179971550425,0 -46.7556534441552,-23.448984764861716,0 -46.75567101786753,-23.44883025797804,0 -46.75575438788922,-23.448826696271386,0 -46.75571089310928,-23.44879386058067,0 -46.755721115880945,-23.448765633901054,0 -46.755646082380245,-23.44873908959624,0 -46.75565803044082,-23.448686111804673,0</coordinates>
      </LineString>
    </Placemark>
  </Document>
</kml>