<?xml version="1.0" encoding="UTF-8"?>
<kml>
  <Document>
    <Placemark>
      <name>R0688967399</name>
      <ExtendedData>
        
          <Data name="Aircraft Name">
            <value>PLOA-19</value>
          </Data>
          <Data name="Flight Controller ID">
            <value>3TNDL3F002RE9M</value>
          </Data>
          <Data name="Pilot Name">
            <value>Matheus Rodrigues</value>
          </Data>
          <Data name="Flight Time">
            <value> 141600</value>
          </Data>
          <Data name="Mode Selection">
            <value>M/M+</value>
          </Data>
          <Data name="Height">
            <value></value>
          </Data>
          <Data name="Route Spacing">
            <value></value>
          </Data>
          <Data name="Task Flight Speed">
            <value></value>
          </Data>
          <Data name="Task Area">
            <value>0.018666666760000002</value>
          </Data>
          <Data name="Spray amount">
            <value>1354</value>
          </Data>
        
      </ExtendedData>
      <Style>
        <LineStyle>
          <color>#FF0000FF</color>
          <width>1</width>
          </LineStyle>
      </Style>
      <LineString>
        <coordinates>-46.648713772273894,-23.55281114335767,0 -46.64872676857926,-23.55279404812195,0 -46.648673462580945,-23.55290074132996,0 -46.64867756051343,-23.553130495376642,0 -46.64873510758946,-23.553133480640177,0 -46.64873087548241,-23.553179157712638,0 -46.648856949875984,-23.553118474802325,0 -46.64881080768817,-23.55310670417462,0 -46.64880019162078,-23.553120225470813,0 -46.648640407912566,-23.553134008516583,0 -46.648754116149995,-23.552833503129737,0 -46.648714538352394,-23.552820616859936,0</coordinates>
      </LineString>
    </Placemark>
  </Document>
</kml>