<?xml version="1.0" encoding="UTF-8"?>
<kml>
  <Document>
    <Placemark>
      <name>R1188499633</name>
      <ExtendedData>
        
          <Data name="Aircraft Name">
            <value>PLOA-19</value>
          </Data>
          <Data name="Flight Controller ID">
            <value>3TNDL3F002RE9M</value>
          </Data>
          <Data name="Pilot Name">
            <value>Matheus Rodrigues</value>
          </Data>
          <Data name="Flight Time">
            <value> 380200</value>
          </Data>
          <Data name="Mode Selection">
            <value>M/M+</value>
          </Data>
          <Data name="Height">
            <value></value>
          </Data>
          <Data name="Route Spacing">
            <value></value>
          </Data>
          <Data name="Task Flight Speed">
            <value></value>
          </Data>
          <Data name="Task Area">
            <value>0.00733333337</value>
          </Data>
          <Data name="Spray amount">
            <value>2541</value>
          </Data>
        
      </ExtendedData>
      <Style>
        <LineStyle>
          <color>#FF0000FF</color>
          <width>1</width>
          </LineStyle>
      </Style>
      <LineString>
        <coordinates>-46.49581082738709,-23.528589329576768,0 -46.49577251218035,-23.52857232040757,0 -46.49574698715469,-23.52852575041367,0 -46.49582260971653,-23.52851952141997,0 -46.49591050229844,-23.52854281477409,0 -46.49597032982829,-23.528592867482086,0 -46.49604444028803,-23.528584592921714,0 -46.496203045125476,-23.528501357781682,0 -46.49623067001292,-23.528548335420712,0 -46.49626016413902,-23.528533876453434,0 -46.49628933568235,-23.528587813951372,0 -46.49627796377989,-23.528567324315333,0 -46.49622502548697,-23.528528249176304,0 -46.4961475169398,-23.528497907564816,0 -46.4959614307833,-23.52846930798455,0 -46.49578922372562,-23.528487008819056,0 -46.49565570539354,-23.528676098316513,0 -46.495654657765606,-23.528768872614418,0 -46.49557309262415,-23.52881767600623,0 -46.495591932530935,-23.52883833118989,0 -46.49561054741083,-23.52882259689041,0 -46.49557510362806,-23.528826379778845,0 -46.49556469022472,-23.528854746530698,0 -46.495561286550384,-23.528866477724005,0 -46.49564539160146,-23.52878886454586,0 -46.4956339704259,-23.52877575064727,0 -46.49567947750582,-23.52875907073642,0 -46.495680186537676,-23.52873835251244,0 -46.49585398682101,-23.52868125301594,0 -46.4958085317362,-23.52866537332593,0</coordinates>
      </LineString>
    </Placemark>
  </Document>
</kml>