<?xml version="1.0" encoding="UTF-8"?>
<kml>
  <Document>
    <Placemark>
      <name>R1864460836</name>
      <ExtendedData>
        
          <Data name="Aircraft Name">
            <value>PLOA-19</value>
          </Data>
          <Data name="Flight Controller ID">
            <value>3TNDL3F002RE9M</value>
          </Data>
          <Data name="Pilot Name">
            <value>Matheus Rodrigues</value>
          </Data>
          <Data name="Flight Time">
            <value> 146500</value>
          </Data>
          <Data name="Mode Selection">
            <value>M/M+</value>
          </Data>
          <Data name="Height">
            <value></value>
          </Data>
          <Data name="Route Spacing">
            <value></value>
          </Data>
          <Data name="Task Flight Speed">
            <value></value>
          </Data>
          <Data name="Task Area">
            <value>0.02133333344</value>
          </Data>
          <Data name="Spray amount">
            <value>790</value>
          </Data>
        
      </ExtendedData>
      <Style>
        <LineStyle>
          <color>#FF0000FF</color>
          <width>1</width>
          </LineStyle>
      </Style>
      <LineString>
        <coordinates>-46.777275247054106,-23.594654999383923,0 -46.777376226557465,-23.594317215609873,0 -46.777305816254284,-23.594402995942737,0 -46.77731016871488,-23.594418243363513,0 -46.77729946641937,-23.59433551181653,0 -46.7772782147407,-23.594326531013024,0 -46.777273180917746,-23.594371261842273,0 -46.77733005965386,-23.594411343034004,0 -46.77733813833492,-23.594502162189475,0 -46.77737420770043,-23.59457788516102,0 -46.77728582041966,-23.59462365699915,0 -46.77726715316504,-23.594659011962754,0</coordinates>
      </LineString>
    </Placemark>
  </Document>
</kml>